site,slope_MK,slope_LR,slope_MK m/20y,slope_LR m/20y,trend_MK,trend_LR,trend_comparison,elevation,aquifer,state,county,lat,long
#1012,-0.1758333333333333,-0.1689164086687307,-14.06666666666666,-13.51331269349845,Decreasing,Decreasing,,1132.03,High Plains aquifer,Colorado,Sedgwick County,40.796391,-102.218254
#1014,-0.1699999999999997,-0.1749473684210528,-13.59999999999997,-13.99578947368422,Decreasing,Decreasing,,1240.54,High Plains aquifer,Colorado,Phillips County,40.65333,-102.660205
#1020,-0.3337500000000002,-0.3429927760577914,-26.70000000000002,-27.43942208462332,Decreasing,Decreasing,,1265.22,High Plains aquifer,Colorado,Kit Carson County,39.339449,-102.277974
#1057,-0.1666666666666667,-0.1647017543859648,-13.33333333333333,-13.17614035087718,Decreasing,Decreasing,,1223.77,High Plains aquifer,Colorado,Phillips County,40.709076,-102.607438
#1058,-0.4057142857142852,-0.4297719298245613,-32.45714285714281,-34.3817543859649,Decreasing,Decreasing,,1107.03,High Plains aquifer,Colorado,Phillips County,40.6326,-102.120342
#1065,-0.4733333333333329,-0.4865263157894738,-37.86666666666663,-38.9221052631579,Decreasing,Decreasing,,1111.0,High Plains aquifer,Colorado,Phillips County,40.639536,-102.122527
#1072,-0.4571428571428576,-0.4553859649122806,-36.5714285714286,-36.43087719298244,Decreasing,Decreasing,,1114.04,High Plains aquifer,Colorado,Phillips County,40.639552,-102.150017
#1073,-0.1607142857142857,-0.1152280701754385,-12.85714285714286,-9.21824561403508,Decreasing,Decreasing,,1126.24,High Plains aquifer,Colorado,Phillips County,40.645572,-102.200963
#1074,-0.3239999999999995,-0.33015479876161,-25.91999999999996,-26.4123839009288,Decreasing,Decreasing,,1130.2,High Plains aquifer,Colorado,Phillips County,40.439774,-102.227832
#1101,-0.2699999999999996,-0.2785036119711041,-21.59999999999997,-22.28028895768833,Decreasing,Decreasing,,1145.44,High Plains aquifer,Colorado,Phillips County,40.48582,-102.306263
#1103,-0.2611111111111105,-0.2776470588235295,-20.88888888888884,-22.21176470588236,Decreasing,Decreasing,,1146.05,High Plains aquifer,Colorado,Phillips County,40.480502,-102.367025
#1104,-0.3593333333333334,-0.3731475748194014,-28.74666666666667,-29.85180598555211,Decreasing,Decreasing,,1151.23,High Plains aquifer,Colorado,Phillips County,40.465122,-102.30618
#1107,-0.03666666666666667,-0.04040350877192987,-2.933333333333334,-3.23228070175439,Decreasing,Decreasing,,1254.56,High Plains aquifer,Colorado,Kiowa County,38.400889,-102.308029
#1132,-0.2529999999999994,-0.287438596491228,-20.23999999999995,-22.99508771929824,Decreasing,Decreasing,,1207.62,High Plains aquifer,Colorado,Baca County,37.593445,-102.26588
#1133,-0.1799999999999997,-0.2693395252837977,-14.39999999999998,-21.54716202270382,Decreasing,Decreasing,,1204.26,High Plains aquifer,Colorado,Baca County,37.585433,-102.27581
#1176,-0.6333333333333341,-0.6612796697626421,-50.66666666666673,-52.90237358101137,Decreasing,Decreasing,,1258.52,High Plains aquifer,Colorado,Baca County,37.265878,-102.410194
#1181,-0.2858333333333333,-0.300561403508772,-22.86666666666667,-24.04491228070176,Decreasing,Decreasing,,1144.83,High Plains aquifer,Colorado,Baca County,37.184192,-102.113102
#1219,-0.2650000000000006,-0.2740660474716203,-21.20000000000005,-21.92528379772962,Decreasing,Decreasing,,1323.75,High Plains aquifer,Colorado,Baca County,37.23629,-102.538853
#152226,-0.02181818181818184,-0.02175438596491229,-1.745454545454547,-1.740350877192983,No trend,No trend,,1327.71,High Plains aquifer,Colorado,Washington County,39.690471,-102.812535
#417,-0.112222222222222,-0.1191795665634675,-8.97777777777776,-9.534365325077397,Decreasing,Decreasing,,1137.51,High Plains aquifer,Colorado,Sedgwick County,40.777773,-102.227963
#424,0.1388888888888889,0.1324385964912282,11.11111111111111,10.59508771929826,Increasing,Increasing,,1101.24,High Plains aquifer,Colorado,Sedgwick County,40.793895,-102.051859
#427,-0.129999999999999,-0.06765737874097,-10.39999999999992,-5.4125902992776,Decreasing,Decreasing,,1165.25,High Plains aquifer,Colorado,Sedgwick County,40.822771,-102.324353
#437,-0.3387500000000001,-0.3491950464396285,-27.10000000000001,-27.93560371517028,Decreasing,Decreasing,,1095.45,High Plains aquifer,Colorado,Phillips County,40.512781,-102.084917
#438,-0.3916666666666669,-0.401702786377709,-31.33333333333335,-32.13622291021672,Decreasing,Decreasing,,1094.84,High Plains aquifer,Colorado,Phillips County,40.443056,-102.089914
#439,-0.4299999999999997,-0.4472755417956656,-34.39999999999998,-35.78204334365325,Decreasing,Decreasing,,1089.96,High Plains aquifer,Colorado,Phillips County,40.451661,-102.070464
#440,-0.4049999999999994,-0.4248710010319917,-32.39999999999995,-33.98968008255933,Decreasing,Decreasing,,1113.74,High Plains aquifer,Colorado,Phillips County,40.512224,-102.16381
#441,-0.1830769230769233,-0.2402683178534571,-14.64615384615386,-19.22146542827657,Decreasing,Decreasing,,1125.02,High Plains aquifer,Colorado,Phillips County,40.476384,-102.200753
#449,-0.3099999999999999,-0.3245098039215686,-24.79999999999999,-25.96078431372549,Decreasing,Decreasing,,1157.02,High Plains aquifer,Colorado,Phillips County,40.443403,-102.373131
#451,-0.05874999999999986,-0.06389060887512901,-4.699999999999989,-5.111248710010321,Decreasing,Decreasing,,1186.28,High Plains aquifer,Colorado,Phillips County,40.512498,-102.475201
#457,-0.5912500000000005,-0.6188028895768833,-47.30000000000004,-49.50423116615067,Decreasing,Decreasing,,1100.63,High Plains aquifer,Colorado,Phillips County,40.613892,-102.100191
#461,-0.7153333333333332,-0.7024355005159959,-57.22666666666665,-56.19484004127968,Decreasing,Decreasing,,1120.44,High Plains aquifer,Colorado,Phillips County,40.585278,-102.195754
#477,-0.1726666666666664,-0.1774210526315789,-13.81333333333331,-14.19368421052631,Decreasing,Decreasing,,1236.57,High Plains aquifer,Colorado,Phillips County,40.579715,-102.626031
#478,-0.4015384615384615,-0.4159958720330235,-32.12307692307692,-33.27966976264188,Decreasing,Decreasing,,1099.41,High Plains aquifer,Colorado,Phillips County,40.628895,-102.075472
#479,-0.5077777777777778,-0.4827450980392158,-40.62222222222222,-38.61960784313727,Decreasing,Decreasing,,1098.5,High Plains aquifer,Colorado,Phillips County,40.617773,-102.084351
#481,-0.4463636363636361,-0.4570278637770897,-35.70909090909089,-36.56222910216718,Decreasing,Decreasing,,1103.99,High Plains aquifer,Colorado,Phillips County,40.624166,-102.110468
#483,-0.5162499999999999,-0.5207069143446853,-41.29999999999999,-41.65655314757483,Decreasing,Decreasing,,1125.32,High Plains aquifer,Colorado,Phillips County,40.616667,-102.210197
#486,-0.1,-0.117578947368421,-8.0,-9.406315789473682,Decreasing,Decreasing,,1200.0,High Plains aquifer,Colorado,Phillips County,40.690556,-102.513255
#487,-0.2107692307692304,-0.1990877192982456,-16.86153846153843,-15.92701754385964,Decreasing,Decreasing,,1188.42,High Plains aquifer,Colorado,Phillips County,40.683048,-102.451022
#490,-0.1328571428571428,-0.1762807017543859,-10.62857142857142,-14.10245614035087,Decreasing,Decreasing,,1229.87,High Plains aquifer,Colorado,Phillips County,40.624157,-102.637137
#496,-0.08714285714285706,-0.09231578947368425,-6.971428571428565,-7.38526315789474,Decreasing,Decreasing,,1185.37,High Plains aquifer,Colorado,Phillips County,40.737221,-102.424089
#498,-0.1609090909090918,-0.1496078431372549,-12.87272727272735,-11.9686274509804,Decreasing,Decreasing,,1240.54,High Plains aquifer,Colorado,Phillips County,40.745547,-102.635384
#499,-0.1222222222222224,-0.1170691434468524,-9.777777777777791,-9.365531475748192,Decreasing,Decreasing,,1225.91,High Plains aquifer,Colorado,Phillips County,40.746668,-102.60326
#514,-0.125,-0.09955624355005137,-10.0,-7.96449948400411,Decreasing,Decreasing,,1255.47,High Plains aquifer,Colorado,Logan County,40.767589,-102.673936
#565,-0.2571428571428577,-0.2707017543859649,-20.57142857142862,-21.65614035087719,Decreasing,Decreasing,,1157.02,High Plains aquifer,Colorado,Yuma County,40.435786,-102.373263
#566,-0.2627272727272728,-0.2875954592363261,-21.01818181818182,-23.00763673890609,Decreasing,Decreasing,,1163.42,High Plains aquifer,Colorado,Yuma County,40.428611,-102.392143
#673,-0.1349999999999998,-0.1345923632610938,-10.79999999999998,-10.76738906088751,Decreasing,Decreasing,,1222.55,High Plains aquifer,Colorado,Yuma County,39.817088,-102.463818
#675,-0.1079999999999999,-0.105438596491228,-8.639999999999995,-8.43508771929824,Decreasing,Decreasing,,1270.71,High Plains aquifer,Colorado,Yuma County,39.787623,-102.608902
#689,-0.6699999999999997,-0.6976573787409701,-53.59999999999998,-55.81259029927761,Decreasing,Decreasing,,1251.51,High Plains aquifer,Colorado,Yuma County,39.667588,-102.434979
#691,0.04666666666666671,0.04854385964912279,3.733333333333337,3.883508771929823,No trend,Increasing,Different,1269.19,High Plains aquifer,Colorado,Yuma County,39.713526,-102.673954
#692,-0.5769230769230769,-0.6635964912280701,-46.15384615384615,-53.0877192982456,Decreasing,Decreasing,,1296.31,High Plains aquifer,Colorado,Yuma County,39.688611,-102.673832
#696,-0.67625,-0.6719473684210528,-54.1,-53.75578947368423,Decreasing,Decreasing,,1310.94,High Plains aquifer,Colorado,Yuma County,39.661941,-102.712167
#698,0.03999999999999997,0.04466666666666665,3.199999999999998,3.573333333333332,No trend,Increasing,Different,1342.03,High Plains aquifer,Colorado,Washington County,39.662232,-102.846041
#699,-0.1721428571428572,-0.1720877192982457,-13.77142857142857,-13.76701754385965,Decreasing,Decreasing,,1411.83,High Plains aquifer,Colorado,Washington County,39.659954,-103.021792
#700,-0.02000000000000017,-0.02670175438596491,-1.600000000000013,-2.136140350877193,Decreasing,Decreasing,,1375.26,High Plains aquifer,Colorado,Washington County,39.65542,-102.935229
#705,-0.161875,-0.1948297213622291,-12.95,-15.58637770897833,Decreasing,Decreasing,,1110.69,High Plains aquifer,Colorado,Yuma County,39.584921,-102.104208
#714,-0.1546666666666666,-0.1624561403508772,-12.37333333333333,-12.99649122807017,Decreasing,Decreasing,,1163.12,High Plains aquifer,Colorado,Yuma County,39.595552,-102.340758
#718,-0.5691666666666665,-0.5890402476780184,-45.53333333333332,-47.12321981424147,Decreasing,Decreasing,,1247.55,High Plains aquifer,Colorado,Yuma County,39.610555,-102.464412
#719,-0.6213333333333334,-0.6599999999999999,-49.70666666666667,-52.8,Decreasing,Decreasing,,1258.82,High Plains aquifer,Colorado,Yuma County,39.581923,-102.536449
#721,-0.64,-0.6847574819401445,-51.2,-54.78059855521156,Decreasing,Decreasing,,1271.63,High Plains aquifer,Colorado,Yuma County,39.646728,-102.587732
#725,-0.3858333333333335,-0.4025386996904024,-30.86666666666668,-32.20309597523219,Decreasing,Decreasing,,1289.61,High Plains aquifer,Colorado,Yuma County,39.622556,-102.625255
#726,-0.7185714285714287,-0.7423219814241485,-57.4857142857143,-59.38575851393188,Decreasing,Decreasing,,1303.32,High Plains aquifer,Colorado,Yuma County,39.612005,-102.662446
#727,-0.5983771929824566,-0.5076165413533836,-47.87017543859653,-40.60932330827069,Decreasing,Decreasing,,1304.24,High Plains aquifer,Colorado,Yuma County,39.572138,-102.663555
#728,-0.3806249999999998,-0.3819298245614035,-30.44999999999998,-30.55438596491228,Decreasing,Decreasing,,1279.86,High Plains aquifer,Colorado,Yuma County,39.58341,-102.584958
#730,-0.3485714285714283,-0.3681228070175439,-27.88571428571426,-29.44982456140351,Decreasing,Decreasing,,1327.1,High Plains aquifer,Colorado,Yuma County,39.643885,-102.758268
#732,-0.4111538461538462,-0.4616015037593986,-32.8923076923077,-36.92812030075189,Decreasing,Decreasing,,1320.09,High Plains aquifer,Colorado,Yuma County,39.622771,-102.731049
#733,-0.3330769230769235,-0.3517956656346751,-26.64615384615388,-28.14365325077401,Decreasing,Decreasing,,1333.8,High Plains aquifer,Colorado,Yuma County,39.608038,-102.759646
#734,-0.5085714285714287,-0.5376315789473685,-40.6857142857143,-43.01052631578948,Decreasing,Decreasing,,1326.18,High Plains aquifer,Colorado,Yuma County,39.586343,-102.721619
#735,-0.182857142857143,-0.1704561403508772,-14.62857142857144,-13.63649122807018,Decreasing,Decreasing,,1343.25,High Plains aquifer,Colorado,Washington County,39.643205,-102.807092
#736,-0.1974999999999998,-0.2376470588235294,-15.79999999999998,-19.01176470588236,Decreasing,Decreasing,,1354.53,High Plains aquifer,Colorado,Washington County,39.654622,-102.86179
#737,-0.09571428571428583,-0.09320300751879702,-7.657142857142867,-7.456240601503762,Decreasing,Decreasing,,1361.85,High Plains aquifer,Colorado,Washington County,39.629816,-102.858651
#739,-0.03000000000000001,-0.03128070175438595,-2.4,-2.502456140350876,Decreasing,Decreasing,,1387.14,High Plains aquifer,Colorado,Washington County,39.645781,-102.963696
#740,-0.0630769230769231,-0.06705263157894739,-5.046153846153848,-5.364210526315791,Decreasing,Decreasing,,1397.81,High Plains aquifer,Colorado,Washington County,39.627481,-102.992181
#741,-0.1840000000000003,-0.1852105263157895,-14.72000000000003,-14.81684210526316,Decreasing,Decreasing,,1410.0,High Plains aquifer,Colorado,Washington County,39.60017,-102.94244
#747,0.1,0.09166150670794637,8.000000000000002,7.33292053663571,Increasing,Increasing,,1167.99,High Plains aquifer,Colorado,Kit Carson County,39.570612,-102.360313
#749,-0.1699999999999999,-0.1957172342621259,-13.59999999999999,-15.65737874097007,Decreasing,Decreasing,,1204.57,High Plains aquifer,Colorado,Kit Carson County,39.530703,-102.466726
#752,-0.5849999999999991,-0.6125614035087718,-46.79999999999993,-49.00491228070174,Decreasing,Decreasing,,1278.94,High Plains aquifer,Colorado,Kit Carson County,39.526448,-102.594565
#811,-0.2700000000000001,-0.2630650154798764,-21.6,-21.04520123839011,Decreasing,Decreasing,,1251.81,High Plains aquifer,Colorado,Kit Carson County,39.460002,-102.370205
#815,0.06400000000000006,0.08582043343653262,5.120000000000005,6.865634674922609,No trend,Increasing,Different,1252.42,High Plains aquifer,Colorado,Kit Carson County,39.41639,-102.343262
#817,-0.3233333333333335,-0.3223735810113518,-25.86666666666668,-25.78988648090814,Decreasing,Decreasing,,1247.55,High Plains aquifer,Colorado,Kit Carson County,39.47139,-102.383817
#818,-0.2350000000000012,-0.2282868937048507,-18.8000000000001,-18.26295149638806,Decreasing,Decreasing,,1273.76,High Plains aquifer,Colorado,Kit Carson County,39.475271,-102.453531
#819,-0.3639999999999987,-0.3586996904024768,-29.11999999999989,-28.69597523219814,Decreasing,Decreasing,,1279.25,High Plains aquifer,Colorado,Kit Carson County,39.442778,-102.421314
#821,-0.8500000000000014,-0.7433333333333336,-68.00000000000011,-59.46666666666669,Decreasing,Decreasing,,1264.62,High Plains aquifer,Colorado,Kit Carson County,39.424169,-102.407701
#822,0.04599999999999985,0.06257997936016509,3.679999999999988,5.006398348813207,No trend,Increasing,Different,1285.34,High Plains aquifer,Colorado,Kit Carson County,39.403053,-102.445202
#824,0.4883333333333345,0.5311145510835915,39.06666666666676,42.48916408668732,Increasing,Increasing,,1302.11,High Plains aquifer,Colorado,Kit Carson County,39.4025,-102.521597
#850,0.1727272727272733,0.2233539731682145,13.81818181818186,17.86831785345716,No trend,Increasing,Different,1283.21,High Plains aquifer,Colorado,Kit Carson County,39.334173,-102.35465
#860,-0.006000000000000227,0.005376676986583925,-0.4800000000000182,0.430134158926714,No trend,No trend,,1333.2,High Plains aquifer,Colorado,Kit Carson County,39.316112,-102.562993
#911,-0.1155882352941176,-0.4492781954887219,-9.247058823529409,-35.94225563909775,Decreasing,Decreasing,,1316.74,High Plains aquifer,Colorado,Kit Carson County,39.156392,-102.351593
#927,-0.1136111111111112,-0.1155977443609026,-9.088888888888896,-9.247819548872204,Decreasing,Decreasing,,1262.48,High Plains aquifer,Colorado,Kit Carson County,39.098617,-102.241029
#956,-0.3100000000000023,-0.3067543859649123,-24.80000000000018,-24.54035087719298,Decreasing,Decreasing,,1144.83,High Plains aquifer,Colorado,Prowers County,38.253813,-102.066942
#957,-0.1166666666666663,-0.1176315789473683,-9.333333333333307,-9.410526315789467,Decreasing,Decreasing,,1151.53,High Plains aquifer,Colorado,Prowers County,38.263685,-102.115235
#958,0.07090909090909037,0.06005263157894735,5.672727272727229,4.804210526315788,No trend,Increasing,Different,1166.47,High Plains aquifer,Colorado,Prowers County,38.248246,-102.192235
#959,-0.09352941176470608,-0.101561403508772,-7.482352941176487,-8.124912280701759,Decreasing,Decreasing,,1140.56,High Plains aquifer,Colorado,Prowers County,38.205632,-102.083092
#960,0.002499999999999503,-0.01671929824561398,0.1999999999999602,-1.337543859649118,No trend,No trend,,1117.4,High Plains aquifer,Colorado,Prowers County,38.180795,-102.160344
#962,-0.1360000000000002,-0.1519298245614036,-10.88000000000001,-12.15438596491228,No trend,Decreasing,Different,1174.09,High Plains aquifer,Colorado,Prowers County,38.246074,-102.254095
#965,0.02749999999999986,0.008105263157894744,2.199999999999989,0.6484210526315795,Increasing,No trend,Different,1143.91,High Plains aquifer,Colorado,Prowers County,38.216574,-102.210652
#966,-0.01249999999999973,-0.0384912280701754,-0.9999999999999787,-3.079298245614032,No trend,Decreasing,Different,1106.42,High Plains aquifer,Colorado,Prowers County,38.16863,-102.115771
#978,0.5727272727272728,0.5758245614035088,45.81818181818182,46.06596491228071,Increasing,Increasing,,1224.38,High Plains aquifer,Colorado,Kiowa County,38.325756,-102.315698
#979,0.2100000000000009,0.2267543859649123,16.80000000000007,18.14035087719299,Increasing,Increasing,,1184.76,High Plains aquifer,Colorado,Kiowa County,38.279665,-102.301258
#980,0.0139999999999997,0.01543859649122808,1.119999999999976,1.235087719298246,Increasing,No trend,Different,1200.0,High Plains aquifer,Colorado,Kiowa County,38.52939,-102.069242
#370217101593801,-0.3398319327731087,-0.3365112781954887,-27.1865546218487,-26.92090225563909,Decreasing,Decreasing,,1083.26,High Plains aquifer,Kansas,Morton County,37.035692,-101.994048
#370322101443201,-0.09923076923076998,-0.07719548872180444,-7.938461538461599,-6.175639097744355,Decreasing,Decreasing,,1040.59,High Plains aquifer,Kansas,Morton County,37.054575,-101.74224
#370352101055301,-1.545098039215687,-1.539417293233083,-123.6078431372549,-123.1533834586466,Decreasing,Decreasing,,907.39,High Plains aquifer,Kansas,Stevens County,37.061856,-101.094843
#370758101272501,-1.22375,-1.234462406015038,-97.89999999999999,-98.756992481203,Decreasing,Decreasing,,975.97,High Plains aquifer,Kansas,Stevens County,37.132956,-101.457237
#370958101055501,-1.577727272727273,-1.538447368421053,-126.2181818181818,-123.0757894736842,Decreasing,Decreasing,,904.65,High Plains aquifer,Kansas,Stevens County,37.162395,-101.103341
#371026101020701,-1.880000000000001,-1.89906015037594,-150.4000000000001,-151.9248120300752,Decreasing,Decreasing,,888.19,High Plains aquifer,Kansas,Seward County,37.170645,-101.040043
#371237100455301,-0.5549999999999997,-0.5751804511278196,-44.39999999999998,-46.01443609022557,Decreasing,Decreasing,,850.39,High Plains aquifer,Kansas,Seward County,37.209601,-100.765435
#371306100554201,-0.5315555555555556,-0.5465563909774438,-42.52444444444444,-43.72451127819551,Decreasing,Decreasing,,859.84,High Plains aquifer,Kansas,Seward County,37.21744,-100.92774
#371615100463702,-0.6605555555555565,-0.6660300751879702,-52.84444444444452,-53.28240601503762,Decreasing,Decreasing,,862.58,High Plains aquifer,Kansas,Seward County,37.2712,-100.778535
#371621101082602,-0.5531666666666673,-0.552093984962406,-44.25333333333338,-44.16751879699248,Decreasing,Decreasing,,917.45,High Plains aquifer,Kansas,Stevens County,37.271894,-101.140438
#371641101254101,-0.9396666666666668,-0.9493458646616544,-75.17333333333335,-75.94766917293235,Decreasing,Decreasing,,967.74,High Plains aquifer,Kansas,Stevens County,37.278774,-101.428936
#371713101125601,-1.115312499999999,-1.108462406015038,-89.22499999999992,-88.67699248120302,Decreasing,Decreasing,,932.69,High Plains aquifer,Kansas,Stevens County,37.287044,-101.216537
#371907100481601,-0.6604166666666664,-0.6560423116615066,-52.83333333333331,-52.48338493292053,Decreasing,Decreasing,,869.9,High Plains aquifer,Kansas,Seward County,37.31915,-100.80714
#371916101031901,-0.5061538461538461,-0.4957585139318886,-40.49230769230768,-39.66068111455109,Decreasing,Decreasing,,897.94,High Plains aquifer,Kansas,Seward County,37.322024,-101.056622
#372117101280901,-0.323333333333333,-0.3141052631578946,-25.86666666666664,-25.12842105263157,Decreasing,Decreasing,,963.78,High Plains aquifer,Kansas,Stevens County,37.354573,-101.47047
#372214101211701,-1.050801282051282,-1.040763157894737,-84.06410256410254,-83.26105263157896,Decreasing,Decreasing,,945.49,High Plains aquifer,Kansas,Stevens County,37.370003,-101.35754
#372236101324601,-0.5045588235294118,-0.5035902255639098,-40.36470588235295,-40.28721804511278,Decreasing,Decreasing,,972.01,High Plains aquifer,Kansas,Stevens County,37.37554,-101.54714
#372306100446001,-0.5500000000000078,-0.5612142857142857,-44.00000000000063,-44.89714285714285,Decreasing,Decreasing,,862.58,High Plains aquifer,Kansas,Seward County,37.384842,-100.751436
#372405100473901,-0.6891666666666662,-0.7141654135338348,-55.13333333333329,-57.13323308270678,Decreasing,Decreasing,,868.07,High Plains aquifer,Kansas,Haskell County,37.402053,-100.794388
#372510101455601,-0.05649999999999977,-0.0430225563909774,-4.519999999999982,-3.441804511278192,Decreasing,Decreasing,,1025.65,High Plains aquifer,Kansas,Stanton County,37.4211,-101.766847
#372616101213801,-0.6843750000000011,-0.6733233082706765,-54.75000000000009,-53.86586466165412,Decreasing,Decreasing,,944.88,High Plains aquifer,Kansas,Grant County,37.437383,-101.360243
#372802100104801,-0.9724047619047621,-1.007755639097744,-77.79238095238097,-80.62045112781956,Decreasing,Decreasing,,769.62,High Plains aquifer,Kansas,Meade County,37.467123,-100.180018
#372841099401201,-0.125,-0.1315338345864661,-10.0,-10.52270676691729,Decreasing,Decreasing,,745.24,High Plains aquifer,Kansas,Ford County,37.478302,-99.670152
#373005099381801,-0.1399999999999983,-0.1371052631578946,-11.19999999999986,-10.96842105263157,Decreasing,Decreasing,,745.24,High Plains aquifer,Kansas,Ford County,37.500851,-99.638581
#373054100354402,-1.051666666666665,-1.021413533834587,-84.13333333333324,-81.71308270676693,Decreasing,Decreasing,,858.01,High Plains aquifer,Kansas,Gray County,37.514304,-100.597732
#373113101462601,-0.2050000000000003,-0.2344912280701758,-16.40000000000003,-18.75929824561406,Decreasing,Decreasing,,1027.79,High Plains aquifer,Kansas,Stanton County,37.519543,-101.774182
#373127099540701,-0.1007941176470585,-0.09160526315789483,-8.063529411764684,-7.328421052631587,Decreasing,Decreasing,,771.14,High Plains aquifer,Kansas,Ford County,37.524441,-99.90228
#373202099071801,-0.1053846153846155,-0.08080495356037157,-8.430769230769236,-6.464396284829725,Decreasing,Decreasing,,640.08,High Plains aquifer,Kansas,Kiowa County,37.535377,-99.123027
#373209100035801,-0.851666666666667,-0.8834887218045114,-68.13333333333335,-70.67909774436092,Decreasing,Decreasing,,861.06,High Plains aquifer,Kansas,Gray County,37.534144,-100.634133
#373222100432601,-1.096666666666664,-1.089087719298246,-87.73333333333312,-87.12701754385964,Decreasing,Decreasing,,873.86,High Plains aquifer,Kansas,Haskell County,37.538844,-100.725186
#373231098480401,-0.02615384615384614,-0.02529879243563454,-2.092307692307692,-2.023903394850763,Decreasing,Decreasing,,606.25,High Plains aquifer,Kansas,Pratt County,37.5428,-98.803
#373231100025401,-0.2711363636363635,-0.2777518796992483,-21.69090909090908,-22.22015037593987,Decreasing,Decreasing,,797.66,High Plains aquifer,Kansas,Ford County,37.54525,-100.05231
#373233098411501,-0.02800000000000001,-0.02661695146958305,-2.240000000000001,-2.129356117566644,Decreasing,Decreasing,,579.12,High Plains aquifer,Kansas,Pratt County,37.54345,-98.69195
#373331101442101,-0.3328333333333343,-0.3902142857142857,-26.62666666666674,-31.21714285714286,Decreasing,Decreasing,,1013.46,High Plains aquifer,Kansas,Stanton County,37.55567,-101.74242
#373341099062501,-0.1283333333333333,-0.1273529411764706,-10.26666666666666,-10.18823529411764,Decreasing,Decreasing,,643.13,High Plains aquifer,Kansas,Kiowa County,37.560556,-99.109154
#373358099550801,-0.2177777777777775,-0.2230150375939849,-17.4222222222222,-17.84120300751879,Decreasing,Decreasing,,770.53,High Plains aquifer,Kansas,Ford County,37.566371,-99.91953
#373433101320202,-0.3916666666666681,-0.3942105263157895,-31.33333333333345,-31.53684210526316,Decreasing,Decreasing,,958.6,High Plains aquifer,Kansas,Stanton County,37.575149,-101.534447
#373510099335801,-0.1380555555555557,-0.1259962406015038,-11.04444444444446,-10.0796992481203,Decreasing,Decreasing,,720.85,High Plains aquifer,Kansas,Ford County,37.5861,-99.566529
#373528099553501,-0.2466666666666661,-0.2435877192982457,-19.73333333333329,-19.48701754385965,Decreasing,Decreasing,,772.36,High Plains aquifer,Kansas,Ford County,37.591441,-99.93493
#373529098330001,-0.105718954248366,-0.09410902255639093,-8.45751633986928,-7.528721804511274,Decreasing,Decreasing,,560.83,High Plains aquifer,Kansas,Pratt County,37.59077,-98.551944
#373607100565301,-0.5964852941176473,-0.5952218045112786,-47.71882352941178,-47.61774436090229,Decreasing,Decreasing,,907.08,High Plains aquifer,Kansas,Haskell County,37.598744,-100.949744
#373701101175001,-0.2843181818181821,-0.2944060150375942,-22.74545454545457,-23.55248120300753,Decreasing,Decreasing,,929.64,High Plains aquifer,Kansas,Grant County,37.61747,-101.299448
#373702099525701,-0.25,-0.2520864661654135,-20.0,-20.16691729323308,Decreasing,Decreasing,,776.33,High Plains aquifer,Kansas,Ford County,37.617351,-99.882989
#373748101205501,-0.3060416666666667,-0.3270375939849625,-24.48333333333333,-26.163007518797,Decreasing,Decreasing,,935.13,High Plains aquifer,Kansas,Grant County,37.6302,-101.349828
#374014100284601,-1.694,-1.595964912280702,-135.52,-127.6771929824561,Decreasing,Decreasing,,841.25,High Plains aquifer,Kansas,Gray County,37.671373,-100.483728
#374136101020902,-1.066654411764706,-1.065759398496241,-85.33235294117648,-85.26075187969924,Decreasing,Decreasing,,912.88,High Plains aquifer,Kansas,Haskell County,37.693003,-101.036047
#374323098500101,-0.0811111111111111,-0.09509774436090225,-6.488888888888889,-7.60781954887218,Decreasing,Decreasing,,608.08,High Plains aquifer,Kansas,Pratt County,37.722798,-98.834354
#374347098554501,-0.1107142857142857,-0.1212631578947368,-8.857142857142854,-9.701052631578946,Decreasing,Decreasing,,620.57,High Plains aquifer,Kansas,Pratt County,37.729494,-98.930977
#374358098203301,-0.001830143540669841,-0.001976327181590343,-0.1464114832535873,-0.1581061745272274,No trend,No trend,,528.83,High Plains aquifer,Kansas,Reno County,37.732746,-98.346824
#374544101103701,-0.7466666666666673,-0.7804924812030076,-59.73333333333338,-62.43939849624061,Decreasing,Decreasing,,932.69,High Plains aquifer,Kansas,Kearny County,37.76175,-101.176949
#374638101203801,-0.8950000000000007,-0.876932330827068,-71.60000000000005,-70.15458646616544,Decreasing,Decreasing,,950.98,High Plains aquifer,Kansas,Kearny County,37.775867,-101.340749
#374653099070201,-0.1430952380952381,-0.1450601503759399,-11.44761904761905,-11.60481203007519,Decreasing,Decreasing,,637.64,High Plains aquifer,Kansas,Edwards County,37.78065,-99.11844
#374658099244302,-0.1199999999999999,-0.1142414860681115,-9.59999999999999,-9.139318885448919,Decreasing,Decreasing,,680.92,High Plains aquifer,Kansas,Edwards County,37.7902,-99.413911
#374717098593501,-0.09257575757575756,-0.09651879699248121,-7.406060606060604,-7.721503759398497,Decreasing,Decreasing,,624.84,High Plains aquifer,Kansas,Pratt County,37.787333,-98.995455
#374747100552101,-1.805624999999999,-1.756556390977444,-144.45,-140.5245112781955,Decreasing,Decreasing,,880.87,High Plains aquifer,Kansas,Finney County,37.794924,-100.922543
#374826101541404,-1.214615384615385,-1.238074561403509,-97.16923076923078,-99.04596491228071,Decreasing,Decreasing,,1038.15,High Plains aquifer,Kansas,Hamilton County,37.808712,-101.906455
#374837097225301,0.02000000000000007,0.01337461300309598,1.600000000000005,1.069969040247678,No trend,No trend,,408.74,High Plains aquifer,Kansas,Sedgwick County,37.807629,-97.383321
#374908098542801,-0.05017156862745101,-0.0458496240601504,-4.013725490196081,-3.667969924812033,No trend,Decreasing,Different,615.7,High Plains aquifer,Kansas,Pratt County,37.820982,-98.908115
#374923098420201,-0.0679583333333333,-0.0557017543859649,-5.436666666666664,-4.456140350877192,No trend,Decreasing,Different,579.42,High Plains aquifer,Kansas,Stafford County,37.826017,-98.701337
#374930098470601,-0.01153453689167976,-0.01584914559125086,-0.922762951334381,-1.267931647300069,No trend,No trend,,597.41,High Plains aquifer,Kansas,Stafford County,37.828668,-98.784462
#374931099182901,-0.2000000000000004,-0.1982932330827068,-16.00000000000003,-15.86345864661654,Decreasing,Decreasing,,665.07,High Plains aquifer,Kansas,Edwards County,37.825533,-99.309324
#375131097301402,0.01624999999999999,0.01019607843137255,1.299999999999999,0.8156862745098037,No trend,No trend,,420.62,High Plains aquifer,Kansas,Sedgwick County,37.857962,-97.505322
#375149101341601,0.003076923076923285,0.002526315789473767,0.2461538461538628,0.2021052631579014,No trend,No trend,,1001.57,High Plains aquifer,Kansas,Hamilton County,37.864775,-101.570249
#375201099190201,-0.1458484848484849,-0.1458233082706767,-11.66787878787879,-11.66586466165414,Decreasing,Decreasing,,665.99,High Plains aquifer,Kansas,Edwards County,37.86878,-99.31737
#375211097383301,0.02750000000000008,0.01110423116615067,2.200000000000006,0.8883384932920533,No trend,No trend,,436.17,High Plains aquifer,Kansas,Sedgwick County,37.870469,-97.644663
#375228098451901,-0.02666666666666669,-0.03591228070175438,-2.133333333333335,-2.872982456140351,No trend,Decreasing,Different,591.31,High Plains aquifer,Kansas,Stafford County,37.879682,-98.751668
#375257101144301,-1.124471153846154,-1.007726817042607,-89.95769230769234,-80.61814536340854,Decreasing,Decreasing,,926.59,High Plains aquifer,Kansas,Kearny County,37.882669,-101.244848
#375259097252901,-0.001300813008130068,0.001383678768488896,-0.1040650406504054,0.1106943014791117,No trend,No trend,,417.27,High Plains aquifer,Kansas,Sedgwick County,37.88306739,-97.425042
#375342098360701,-0.001440092165898633,-0.001466666666666666,-0.1152073732718906,-0.1173333333333333,No trend,No trend,,563.27,High Plains aquifer,Kansas,Stafford County,37.895395,-98.600593
#375439098413701,-0.008867521367521381,-0.01064436090225564,-0.7094017094017104,-0.8515488721804509,No trend,No trend,,581.25,High Plains aquifer,Kansas,Stafford County,37.91198,-98.69187
#375454101075401,-1.559375,-1.528234962406015,-124.75,-122.2587969924812,Decreasing,Decreasing,,911.35,High Plains aquifer,Kansas,Kearny County,37.915722,-101.130647
#375457098281801,-0.007800744109136009,-0.007834905445431764,-0.6240595287308808,-0.6267924356345411,Decreasing,No trend,Different,534.92,High Plains aquifer,Kansas,Reno County,37.916271,-98.471943
#375459100195001,-0.2836363636363641,-0.2789824561403508,-22.69090909090913,-22.31859649122807,Decreasing,Decreasing,,825.7,High Plains aquifer,Kansas,Gray County,37.914521,-100.328421
#375507097474502,0.02916666666666664,0.03143446852425182,2.333333333333331,2.514757481940146,No trend,Increasing,Different,453.24,High Plains aquifer,Kansas,Reno County,37.91953,-97.7985
#375625098463401,-0.01423423423423425,-0.01462971380471381,-1.13873873873874,-1.170377104377105,Decreasing,No trend,Different,588.87,High Plains aquifer,Kansas,Stafford County,37.942932,-98.775077
#375652097571701,0.001428571428571398,0.00422084623323013,0.1142857142857119,0.3376676986584104,No trend,No trend,,473.96,High Plains aquifer,Kansas,Reno County,37.947846,-97.954565
#375658097284601,0.1007692307692308,0.09514285714285713,8.061538461538467,7.61142857142857,Increasing,Increasing,,421.54,High Plains aquifer,Kansas,Harvey County,37.948659,-97.4819
#375708100523801,-1.275714285714286,-0.9555521155830754,-102.0571428571428,-76.44416924664603,Decreasing,Decreasing,,863.8,High Plains aquifer,Kansas,Finney County,37.951703,-100.87696
#375732099144301,-0.1304545454545456,-0.1166240601503759,-10.43636363636365,-9.329924812030075,Decreasing,Decreasing,,649.22,High Plains aquifer,Kansas,Edwards County,37.960016,-99.245506
#375732100363002,-0.4433333333333336,-0.4288771929824561,-35.46666666666668,-34.31017543859649,Decreasing,Decreasing,,867.46,High Plains aquifer,Kansas,Gray County,37.959971,-100.60963
#375749101041801,-1.470666666666667,-1.436264189886481,-117.6533333333333,-114.9011351909185,Decreasing,Decreasing,,889.1,High Plains aquifer,Kansas,Finney County,37.963323,-101.071095
#375759098524502,0.01411764705882354,0.0152280701754386,1.129411764705883,1.218245614035088,No trend,No trend,,604.42,High Plains aquifer,Kansas,Stafford County,37.967006,-98.881056
#375801099191001,-0.004000000000000448,-0.004199248120300769,-0.3200000000000358,-0.3359398496240615,No trend,No trend,,654.41,High Plains aquifer,Kansas,Edwards County,37.967749,-99.318558
#375828101103102,-0.1830194805194805,-0.1998846253564947,-14.64155844155844,-15.99077002851958,Decreasing,Decreasing,,913.79,High Plains aquifer,Kansas,Kearny County,37.974471,-101.175946
#375832100571002,-0.3433333333333334,-0.1926228070175439,-27.46666666666668,-15.40982456140351,No trend,Decreasing,Different,873.25,High Plains aquifer,Kansas,Finney County,37.974524,-100.954173
#375847101081801,-0.4197058823529412,-0.4372805662805663,-33.5764705882353,-34.9824453024453,Decreasing,Decreasing,,901.29,High Plains aquifer,Kansas,Kearny County,37.979862,-101.138946
#375910098385901,0.04636363636363634,0.03356037151702786,3.709090909090907,2.684829721362229,No trend,Increasing,Different,571.5,High Plains aquifer,Kansas,Stafford County,37.988015,-98.650479
#380056100554001,-1.7275,-1.719781954887218,-138.2,-137.5825563909775,Decreasing,Decreasing,,882.4,High Plains aquifer,Kansas,Finney County,38.01487,-100.92944
#380106100434402,-0.2166666666666668,-0.244623323013416,-17.33333333333334,-19.56986584107328,Decreasing,Decreasing,,879.35,High Plains aquifer,Kansas,Finney County,38.018722,-100.730133
#380131099080901,-0.06454545454545446,-0.06207894736842105,-5.163636363636357,-4.966315789473684,Decreasing,Decreasing,,632.46,High Plains aquifer,Kansas,Pawnee County,38.025102,-99.13702
#380135100475901,-0.6993750000000003,-0.7164736842105263,-55.95000000000002,-57.3178947368421,Decreasing,Decreasing,,888.49,High Plains aquifer,Kansas,Finney County,38.026352,-100.800336
#380153101071303,-1.353787878787879,-1.339790100250627,-108.3030303030303,-107.1832080200501,Decreasing,Decreasing,,914.4,High Plains aquifer,Kansas,Kearny County,38.031542,-101.121145
#380333100442901,-0.1783333333333334,-0.1758245614035088,-14.26666666666667,-14.06596491228071,Decreasing,Decreasing,,883.92,High Plains aquifer,Kansas,Finney County,38.060951,-100.742033
#380338098550101,0.00866666666666662,-0.002233082706766915,0.6933333333333296,-0.1786466165413532,No trend,No trend,,601.68,High Plains aquifer,Kansas,Pawnee County,38.061832,-98.917573
#380344101071302,-0.6281250000000002,-0.6343242240215925,-50.25000000000001,-50.7459379217274,Decreasing,Decreasing,,917.45,High Plains aquifer,Kansas,Kearny County,38.061442,-101.121044
#380417101021301,-0.964871794871796,-0.985902255639098,-77.18974358974367,-78.87218045112783,Decreasing,Decreasing,,897.03,High Plains aquifer,Kansas,Finney County,38.071993,-101.038173
#380507098214903,0.001366459627329178,0.001729972658920028,0.1093167701863342,0.1383978127136023,No trend,No trend,,530.66,High Plains aquifer,Kansas,Reno County,38.086054,-98.363217
#380510101231101,-0.06250000000000178,-0.2331390977443609,-5.000000000000142,-18.65112781954887,No trend,Decreasing,Different,1000.05,High Plains aquifer,Kansas,Kearny County,38.085788,-101.386245
#380712099090001,0.01108333333333331,0.01881829573934837,0.8866666666666647,1.50546365914787,No trend,No trend,,619.96,High Plains aquifer,Kansas,Pawnee County,38.119913,-99.149443
#380830099133401,0.05333333333333338,0.08732714138286891,4.26666666666667,6.986171310629513,No trend,Increasing,Different,623.62,High Plains aquifer,Kansas,Pawnee County,38.143346,-99.223375
#381048098133501,0.005916666666666681,0.008203007518796997,0.4733333333333345,0.6562406015037597,No trend,No trend,,500.18,High Plains aquifer,Kansas,Rice County,38.180067,-98.223582
#381109097395001,-0.1099999999999999,-0.09605263157894726,-8.79999999999999,-7.684210526315781,No trend,Decreasing,Different,445.31,High Plains aquifer,Kansas,McPherson County,38.186493,-97.665372
#381122097435903,-0.07418749999999989,-0.07764661654135337,-5.934999999999992,-6.211729323308269,No trend,Decreasing,Different,438.0,High Plains aquifer,Kansas,McPherson County,38.188432,-97.732103
#381131098035101,0.000115384615384613,0.005308270676691726,0.009230769230769036,0.4246616541353381,No trend,No trend,,486.46,High Plains aquifer,Kansas,Rice County,38.19195,-98.064452
#381444098345101,0.01400000000000001,0.01446418560342611,1.120000000000001,1.157134848274089,Increasing,No trend,Different,551.69,High Plains aquifer,Kansas,Stafford County,38.246262,-98.581069
#381456098412802,0.003908045977011524,0.001200539966362752,0.3126436781609219,0.09604319730902017,No trend,No trend,,565.4,High Plains aquifer,Kansas,Stafford County,38.248603,-98.692545
#381611100545501,-0.2299999999999999,-0.2279285714285713,-18.39999999999999,-18.2342857142857,Decreasing,Decreasing,,891.54,High Plains aquifer,Kansas,Scott County,38.270432,-100.911634
#381701098190001,-0.01418749999999993,-0.0003984962406014926,-1.134999999999994,-0.03187969924811941,No trend,No trend,,515.11,High Plains aquifer,Kansas,Rice County,38.282578,-98.316977
#381716100540601,-0.409411764705882,-0.4122719298245613,-32.75294117647056,-32.9817543859649,Decreasing,Decreasing,,889.1,High Plains aquifer,Kansas,Scott County,38.286882,-100.901734
#381747097375101,-0.1058333333333334,-0.1026140350877193,-8.466666666666676,-8.209122807017547,Decreasing,Decreasing,,448.97,High Plains aquifer,Kansas,McPherson County,38.29603,-97.6321
#381826100575701,-0.04750000000000002,-0.05063909774436094,-3.800000000000002,-4.051127819548875,Decreasing,Decreasing,,900.68,High Plains aquifer,Kansas,Scott County,38.306502,-100.966135
#382202098391202,0.02142857142857135,0.02649122807017544,1.714285714285708,2.119298245614035,Increasing,Increasing,,551.69,High Plains aquifer,Kansas,Barton County,38.365612,-98.654791
#382601098550102,-0.01750000000000002,-0.01087203302373582,-1.400000000000001,-0.8697626418988652,No trend,No trend,,577.9,High Plains aquifer,Kansas,Barton County,38.43238,-98.918942
#382909101164601,-0.08428571428571427,-0.09185758513931894,-6.742857142857142,-7.348606811145515,Decreasing,Decreasing,,987.86,High Plains aquifer,Kansas,Wichita County,38.48575,-101.28004
#383130100383801,-0.09433333333333316,-0.07921804511278199,-7.546666666666653,-6.337443609022559,Decreasing,Decreasing,,875.39,High Plains aquifer,Kansas,Lane County,38.525787,-100.644822
#383247101141301,-0.2800000000000011,-0.2621052631578948,-22.40000000000009,-20.96842105263159,Decreasing,Decreasing,,985.42,High Plains aquifer,Kansas,Wichita County,38.545752,-101.237551
#383448101044802,-0.1355000000000001,-0.1319473684210526,-10.84000000000001,-10.55578947368421,Decreasing,Decreasing,,954.63,High Plains aquifer,Kansas,Scott County,38.578914,-101.082096
#383458101460201,-0.02505952380952373,-0.01548872180451127,-2.004761904761899,-1.239097744360901,Decreasing,No trend,Different,1116.48,High Plains aquifer,Kansas,Greeley County,38.581564,-101.767033
#383551101255002,-0.2218181818181816,-0.2212807017543859,-17.74545454545453,-17.70245614035088,Decreasing,Decreasing,,1028.4,High Plains aquifer,Kansas,Wichita County,38.597546,-101.434441
#384149101311701,-0.3593333333333334,-0.3249019607843138,-28.74666666666667,-25.9921568627451,Decreasing,Decreasing,,1059.18,High Plains aquifer,Kansas,Wichita County,38.697413,-101.522844
#391552100485901,-0.2276010101010101,-0.2139323308270677,-18.2080808080808,-17.11458646616541,Decreasing,Decreasing,,919.28,High Plains aquifer,Kansas,Thomas County,39.263686,-100.814127
#391622101311101,-0.01297619047619005,0.03079323308270679,-1.038095238095204,2.463458646616543,No trend,Increasing,Different,1069.85,High Plains aquifer,Kansas,Sherman County,39.2728,-101.52134
#391822100521201,-0.2293750000000021,-0.2296428571428572,-18.35000000000017,-18.37142857142857,Decreasing,Decreasing,,929.94,High Plains aquifer,Kansas,Thomas County,39.30581,-100.87103
#391922101084901,-0.3028571428571435,-0.2507631578947365,-24.22857142857148,-20.06105263157892,Decreasing,Decreasing,,1000.66,High Plains aquifer,Kansas,Thomas County,39.322684,-101.148535
#392414100541201,-0.2495454545454546,-0.2446842105263157,-19.96363636363637,-19.57473684210526,Decreasing,Decreasing,,939.39,High Plains aquifer,Kansas,Thomas County,39.405104,-100.906429
#392713101074901,-0.2049999999999998,-0.1969865841073271,-16.39999999999998,-15.75892672858617,Decreasing,Decreasing,,959.21,High Plains aquifer,Kansas,Thomas County,39.452912,-101.129945
#393104100221201,-0.116,-0.1031114551083592,-9.280000000000001,-8.248916408668732,Decreasing,Decreasing,,798.58,High Plains aquifer,Kansas,Sheridan County,39.51747,-100.37052
#393144101084301,-0.125,-0.1242807017543861,-10.0,-9.942456140350885,Decreasing,Decreasing,,993.95,High Plains aquifer,Kansas,Thomas County,39.531261,-101.147436
#393207100451301,-0.09666666666666639,-0.09561403508771936,-7.733333333333311,-7.649122807017549,Decreasing,Decreasing,,895.5,High Plains aquifer,Kansas,Thomas County,39.53613,-100.75268
#393329101172201,-0.1693750000000001,-0.177719298245614,-13.55,-14.21754385964912,Decreasing,Decreasing,,1018.03,High Plains aquifer,Kansas,Thomas County,39.55853,-101.29145
#393429101550401,-0.2146666666666666,-0.2124200206398349,-17.17333333333333,-16.99360165118679,Decreasing,Decreasing,,1136.9,High Plains aquifer,Kansas,Cheyenne County,39.575515,-101.919477
#393610100341701,0.025,0.02831436699857753,2.0,2.265149359886203,No trend,Increasing,Different,818.69,High Plains aquifer,Kansas,Decatur County,39.603154,-100.572922
#393719101505501,-0.3543333333333322,-0.3157894736842101,-28.34666666666658,-25.26315789473681,Decreasing,Decreasing,,1121.66,High Plains aquifer,Kansas,Cheyenne County,39.62196,-101.84896
#393738101132801,-0.05750000000000011,-0.0556666666666666,-4.600000000000009,-4.453333333333328,Decreasing,Decreasing,,989.08,High Plains aquifer,Kansas,Rawlins County,39.62646,-101.225737
#394607101495502,0.01875,0.01955639097744362,1.5,1.564511278195489,No trend,No trend,,1009.5,High Plains aquifer,Kansas,Cheyenne County,39.769043,-101.830954
#394612101323501,-0.0980294117647065,-0.09879699248120326,-7.84235294117652,-7.903759398496261,Decreasing,Decreasing,,1060.4,High Plains aquifer,Kansas,Cheyenne County,39.770895,-101.541344
#394619101281101,-0.2364285714285711,-0.2388195488721805,-18.91428571428569,-19.10556390977444,Decreasing,Decreasing,,1043.03,High Plains aquifer,Kansas,Cheyenne County,39.771716,-101.466742
#394740101175601,-0.1387105263157894,-0.1418421052631579,-11.09684210526315,-11.34736842105263,Decreasing,Decreasing,,1004.32,High Plains aquifer,Kansas,Rawlins County,39.791838,-101.297239
#395619101375202,0.01714285714285713,0.0140608875128999,1.37142857142857,1.124871001031992,Increasing,No trend,Different,943.97,High Plains aquifer,Kansas,Cheyenne County,39.937678,-101.630913
#400155101521302,0.008659586783637851,0.01030585154588265,0.6927669426910281,0.8244681236706118,Increasing,No trend,Different,977.19,High Plains aquifer,Nebraska,Dundy County,40.02866667,-101.8712222
#401626097210701,-0.0674999999999999,-0.06146783625730993,-5.399999999999991,-4.917426900584794,Decreasing,Decreasing,,451.1,High Plains aquifer,Nebraska,Jefferson County,40.27389055,-97.35226327
#401837097015301,-0.05459523809523788,-0.06709649122807033,-4.36761904761903,-5.367719298245627,Decreasing,Decreasing,,438.91,High Plains aquifer,Nebraska,Jefferson County,40.31028002,-97.03169797
#401928098292502,-0.000999999999999801,0.001068111455108306,-0.07999999999998408,0.08544891640866449,No trend,No trend,,600.46,High Plains aquifer,Nebraska,Webster County,40.32445801,-98.49061668
#402103098475701,-0.03137931034482772,-0.03072064777327941,-2.510344827586217,-2.457651821862353,Decreasing,Decreasing,,644.65,High Plains aquifer,Nebraska,Kearney County,40.35194444,-98.79942222
#402105098543201,0.0191666666666667,0.01759311740890688,1.533333333333336,1.40744939271255,Increasing,No trend,Different,664.16,High Plains aquifer,Nebraska,Kearney County,40.352225,-98.90858333
#402236100013201,0.03344827586206893,0.03071457489878544,2.675862068965515,2.457165991902835,Increasing,Increasing,,728.17,High Plains aquifer,Nebraska,Gosper County,40.37796389,-100.0276917
#402324098220601,-0.04499999999999815,-0.04647058823529402,-3.599999999999852,-3.717647058823522,Decreasing,Decreasing,,576.07,High Plains aquifer,Nebraska,Adams County,40.39001326,-98.36866671
#402411098370101,-0.1591666666666667,-0.1506140350877193,-12.73333333333333,-12.04912280701755,Decreasing,Decreasing,,594.97,High Plains aquifer,Nebraska,Adams County,40.40306987,-98.61728937
#402415098311601,-0.092,-0.08278947368421052,-7.359999999999999,-6.623157894736842,Decreasing,Decreasing,,569.98,High Plains aquifer,Nebraska,Adams County,40.40418066,-98.5214519
#402507098255801,-0.04333333333333324,-0.03868421052631583,-3.466666666666659,-3.094736842105266,No trend,Decreasing,Different,579.12,High Plains aquifer,Nebraska,Adams County,40.41862479,-98.43311457
#402636098534401,-0.02599999999999909,-0.02838663967611334,-2.079999999999927,-2.270931174089067,Decreasing,Decreasing,,664.77,High Plains aquifer,Nebraska,Kearney County,40.44323056,-98.894875
#402726099461700,0.04999999999999978,0.04813533834586457,3.999999999999982,3.850827067669165,Increasing,Increasing,,740.05,High Plains aquifer,Nebraska,Gosper County,40.45884722,-99.77360833
#402946099481501,0.0304761904761905,0.03032186234817813,2.43809523809524,2.425748987854251,Increasing,Increasing,,755.29,High Plains aquifer,Nebraska,Gosper County,40.49722844,-99.80761996
#403014098002201,-0.08999999999999986,-0.08870175438596499,-7.199999999999989,-7.096140350877199,No trend,Decreasing,Different,540.41,High Plains aquifer,Nebraska,Clay County,40.50390012,-98.00643565
#403107098210701,-0.09124999999999961,-0.09626315789473686,-7.299999999999969,-7.701052631578948,Decreasing,Decreasing,,574.55,High Plains aquifer,Nebraska,Adams County,40.51862471,-98.35227901
#403309099250701,-0.07599999999999998,-0.06908771929824559,-6.079999999999998,-5.527017543859647,No trend,Decreasing,Different,707.14,High Plains aquifer,Nebraska,Phelps County,40.55437778,-99.41996667
#403326099582301,0.05878571428571472,0.05668800379326693,4.702857142857177,4.535040303461354,Increasing,Increasing,,791.87,High Plains aquifer,Nebraska,Gosper County,40.55825833,-99.97269444
#403409098263901,-0.1536363636363634,-0.1430443756449948,-12.29090909090908,-11.44355005159959,Decreasing,Decreasing,,595.88,High Plains aquifer,Nebraska,Adams County,40.56918049,-98.44450598
#403422098395701,-0.1099999999999994,-0.1417192982456139,-8.799999999999955,-11.33754385964911,Decreasing,Decreasing,,623.32,High Plains aquifer,Nebraska,Adams County,40.57279231,-98.66618144
#403509098463601,-0.03950000000000013,-0.04553441295546561,-3.160000000000011,-3.642753036437249,Decreasing,Decreasing,,633.07,High Plains aquifer,Nebraska,Kearney County,40.58589722,-98.77617222
#403853099493501,0.02818181818181823,0.02060323886639676,2.254545454545458,1.648259109311741,Increasing,No trend,Different,775.11,High Plains aquifer,Nebraska,Gosper County,40.64650556,-99.82961667
#403855097072501,-0.09791666666666612,-0.09483771929824562,-7.83333333333329,-7.58701754385965,Decreasing,Decreasing,,455.98,High Plains aquifer,Nebraska,Saline County,40.64861664,-97.12392648
#403903098295101,-0.1106666666666669,-0.1089122807017543,-8.853333333333353,-8.712982456140345,Decreasing,Decreasing,,609.3,High Plains aquifer,Nebraska,Adams County,40.65136667,-98.49732222
#403941099331901,-0.024,-0.0403405572755418,-1.92,-3.227244582043344,No trend,Decreasing,Different,704.7,High Plains aquifer,Nebraska,Phelps County,40.66387222,-99.55726389
#403952099583201,0.03159999999999997,0.02840485829959514,2.527999999999997,2.272388663967611,Increasing,Increasing,,812.9,High Plains aquifer,Nebraska,Gosper County,40.66275,-99.976125
#403954099152101,0.003731579131367013,0.00376104631133042,0.298526330509361,0.3008837049064336,Increasing,No trend,Different,673.3,High Plains aquifer,Nebraska,Buffalo County,40.66491667,-99.25589444
#404001099463601,-0.05499999999999972,-0.06066801619433202,-4.399999999999977,-4.853441295546562,Decreasing,Decreasing,,793.7,High Plains aquifer,Nebraska,Gosper County,40.66689167,-99.77699167
#404237098395402,0.01125,0.009439849624060147,0.8999999999999997,0.7551879699248119,No trend,No trend,,607.77,High Plains aquifer,Nebraska,Hall County,40.71019722,-98.66516667
#404343099272901,0.01046510230160609,0.01201833962518806,0.8372081841284871,0.9614671700150451,Increasing,No trend,Different,699.82,High Plains aquifer,Nebraska,Dawson County,40.72841667,-99.457925
#404513098181201,0.008846432503908604,0.004511569889771373,0.7077146003126883,0.3609255911817099,No trend,No trend,,583.69,High Plains aquifer,Nebraska,Hall County,40.75625,-98.30505
#404513098181202,0.004994822005691645,0.001194429424700089,0.3995857604553316,0.09555435397600716,No trend,No trend,,583.69,High Plains aquifer,Nebraska,Hall County,40.75625,-98.30508333
#404618098504401,0.009443311534974234,0.009962256360704271,0.7554649227979388,0.7969805088563418,No trend,No trend,,627.89,High Plains aquifer,Nebraska,Buffalo County,40.7716804,-98.84591222
#404717099460501,0.004099731237667553,0.003356974254384537,0.3279784990134043,0.268557940350763,No trend,No trend,,732.43,High Plains aquifer,Nebraska,Dawson County,40.78761111,-99.76803611
#404949099445701,0.002206016324690599,0.001405755845372362,0.1764813059752479,0.112460467629789,No trend,No trend,,738.23,High Plains aquifer,Nebraska,Dawson County,40.83013889,-99.74989444
#405014099591001,-0.003933064949006986,-0.003964975816486625,-0.3146451959205588,-0.31719806531893,Decreasing,No trend,Different,757.73,High Plains aquifer,Nebraska,Dawson County,40.83725,-99.98618889
#405129099090201,-0.01945678717417849,-0.02277901512626346,-1.556542973934279,-1.822321210101077,Decreasing,No trend,Different,689.76,High Plains aquifer,Nebraska,Buffalo County,40.85802778,-99.15278333
#405137099085201,-0.01950823421736975,-0.02283274422047126,-1.56065873738958,-1.826619537637701,Decreasing,No trend,Different,689.76,High Plains aquifer,Nebraska,Buffalo County,40.85825,-99.15303889
#405227098165601,0.00392441644681721,0.004310282091962915,0.3139533157453768,0.3448225673570332,Increasing,No trend,Different,559.31,High Plains aquifer,Nebraska,Merrick County,40.87416667,-98.28222222
#405305097351503,0.00309523809523797,-0.01021679197994987,0.2476190476190376,-0.8173433583959894,No trend,No trend,,505.66,High Plains aquifer,Nebraska,York County,40.88473417,-97.58782889
#405315098304302,0.01583950542541974,0.01201699925507275,1.26716043403358,0.9613599404058202,Increasing,No trend,Different,586.13,High Plains aquifer,Nebraska,Hall County,40.88797222,-98.51190556
#405406097115001,0.1035714285714286,0.07351417129236673,8.285714285714285,5.881133703389338,No trend,Increasing,Different,472.44,High Plains aquifer,Nebraska,Seward County,40.90167619,-97.19754054
#405445100074001,0.003443069793016776,0.003303960251271459,0.2754455834413421,0.2643168201017167,Increasing,No trend,Different,775.72,High Plains aquifer,Nebraska,Dawson County,40.91222222,-100.1283889
#405632098373501,0.004542351537645749,0.001839750137675889,0.3633881230116599,0.1471800110140712,No trend,No trend,,594.97,High Plains aquifer,Nebraska,Hall County,40.94202778,-98.62683333
#405732100531201,-0.06691391941391936,-0.06741922551133077,-5.353113553113548,-5.393538040906462,Decreasing,Decreasing,,939.09,High Plains aquifer,Nebraska,Lincoln County,40.95889028,-100.8870915
#405744100403701,-0.02927777777777799,-0.02962484883537518,-2.342222222222239,-2.369987906830014,Decreasing,Decreasing,,935.13,High Plains aquifer,Nebraska,Lincoln County,40.9625,-100.6773
#405921097514701,-0.04425347222222235,-0.04919924812030085,-3.540277777777789,-3.935939849624068,No trend,Decreasing,Different,540.72,High Plains aquifer,Nebraska,Hamilton County,40.98918066,-97.86338905
#410102102232301,0.05166666666666667,0.05989473684210526,4.133333333333334,4.79157894736842,No trend,Increasing,Different,1094.84,High Plains aquifer,Nebraska,Deuel County,41.01888333,-102.3923333
#410154099394701,0.00372251942904112,0.002751387017415336,0.2978015543232896,0.2201109613932269,No trend,No trend,,750.42,High Plains aquifer,Nebraska,Dawson County,41.03167454,-99.66344371
#410250101004201,-0.03598245614035024,-0.03817671363723995,-2.878596491228019,-3.054137090979196,Decreasing,Decreasing,,941.22,High Plains aquifer,Nebraska,Lincoln County,41.04722092,-101.0120948
#410330102433801,0.0778571428571431,0.07179566563467507,6.228571428571447,5.743653250774006,Increasing,Increasing,,1260.04,High Plains aquifer,Nebraska,Cheyenne County,41.05786667,-102.7282861
#410437103121101,0.1699999999999999,0.1450701754385965,13.59999999999999,11.60561403508772,Increasing,Increasing,,1311.86,High Plains aquifer,Nebraska,Cheyenne County,41.07675833,-103.2041917
#410618098113401,0.01695764010546617,0.01565449986397564,1.356611208437294,1.252359989118051,Increasing,No trend,Different,539.8,High Plains aquifer,Nebraska,Merrick County,41.10436111,-98.19296111
#410725103104201,0.02625000000000055,0.03015037593984963,2.100000000000044,2.41203007518797,No trend,Increasing,Different,1305.15,High Plains aquifer,Nebraska,Cheyenne County,41.12383889,-103.1789556
#410808103023902,0.4728571428571427,0.3951754385964912,37.82857142857141,31.6140350877193,Increasing,Increasing,,1262.48,High Plains aquifer,Nebraska,Cheyenne County,41.13556944,-103.0444806
#410943097575001,0.01134385272846812,0.00969270353823923,0.9075082182774497,0.7754162830591383,Increasing,No trend,Different,509.93,High Plains aquifer,Nebraska,Merrick County,41.16177778,-97.96390278
#411130104024401,0.3366666666666666,0.3277543859649122,26.93333333333333,26.22035087719298,Increasing,Increasing,,1528.57,High Plains aquifer,Nebraska,Kimball County,41.19398889,-104.0490861
#411555102385601,0.03555555555555559,0.03463364293085657,2.844444444444447,2.770691434468526,Increasing,Increasing,,1175.61,High Plains aquifer,Nebraska,Cheyenne County,41.26615833,-102.6477333
#411738097264301,0.03039804588859071,0.02905257095858787,2.431843671087257,2.324205676687029,Increasing,Increasing,,464.82,High Plains aquifer,Nebraska,Polk County,41.29377778,-97.44516667
#412336104022801,-0.3603864734299517,-0.3187845464446797,-28.83091787439614,-25.50276371557438,Decreasing,Decreasing,,1593.49,High Plains aquifer,Nebraska,Banner County,41.393275,-104.0402833
#412507100074901,0.03409722222222222,0.03481203007518798,2.727777777777778,2.784962406015039,Increasing,Increasing,,826.62,High Plains aquifer,Nebraska,Custer County,41.41861363,-100.1306851
#412905097085101,0.1066666666666668,0.07533023735810113,8.53333333333334,6.02641898864809,Increasing,Increasing,,451.1,High Plains aquifer,Nebraska,Colfax County,41.48473136,-97.14781341
#412944103452701,0.02637681159420296,0.02512677647204349,2.110144927536237,2.010142117763479,Increasing,Increasing,,1520.04,High Plains aquifer,Nebraska,Banner County,41.49531944,-103.7576194
#413022098241001,0.1270185185185186,0.1181578947368421,10.16148148148149,9.452631578947368,Increasing,Increasing,,597.41,High Plains aquifer,Nebraska,Greeley County,41.50612467,-98.40312559
#413042098462401,-0.01000000000000001,-0.01261654135338346,-0.8000000000000007,-1.009323308270677,No trend,No trend,,600.46,High Plains aquifer,Nebraska,Valley County,41.51167779,-98.77369267
#413156098591201,0.0476989550821848,0.04887304171343208,3.815916406574784,3.909843337074566,Increasing,Increasing,,658.37,High Plains aquifer,Nebraska,Valley County,41.53223249,-98.9870332
#413216102520201,0.04968433767040817,0.04401862031599833,3.974747013632653,3.521489625279867,Increasing,Increasing,,1118.62,High Plains aquifer,Nebraska,Morrill County,41.53775551,-102.8677032
#413813103334501,0.04140851036573928,0.06050683654131121,3.312680829259143,4.840546923304896,No trend,Increasing,Different,1255.78,High Plains aquifer,Nebraska,Banner County,41.63691679,-103.5629969
#414413099440801,0.01999999999999999,0.02087218045112782,1.599999999999999,1.669774436090226,No trend,No trend,,765.66,High Plains aquifer,Nebraska,Custer County,41.72916938,-99.74567653
#414506098285901,0.05812500000000008,0.05733834586466158,4.650000000000007,4.587067669172927,No trend,Increasing,Different,623.93,High Plains aquifer,Nebraska,Wheeler County,41.75167674,-98.4834076
#415559098005201,0.04695507654393528,0.04537211557759575,3.756406123514823,3.62976924620766,Increasing,Increasing,,585.83,High Plains aquifer,Nebraska,Antelope County,41.93306391,-98.01478621
#415803098440901,-0.07833333333333344,-0.04815789473684211,-6.266666666666675,-3.852631578947369,No trend,Decreasing,Different,670.26,High Plains aquifer,Nebraska,Wheeler County,41.96750637,-98.73619715
#420500099244001,0.051875,0.04591228070175438,4.15,3.67298245614035,No trend,Increasing,Different,739.14,High Plains aquifer,Nebraska,Loup County,42.08333595,-99.41150123
#420530103104001,-0.2916666666666667,-0.2948421052631577,-23.33333333333334,-23.58736842105262,Decreasing,Decreasing,,1277.42,High Plains aquifer,Nebraska,Box Butte County,42.09163073,-103.1782613
#421210098402001,0.01189540335474975,0.01173450235141392,0.9516322683799803,0.9387601881131136,Increasing,No trend,Different,627.89,High Plains aquifer,Nebraska,Holt County,42.20278308,-98.67258671
#422150097402401,0.02588438735177867,0.02648956459087373,2.070750988142294,2.119165167269899,Increasing,Increasing,,510.84,High Plains aquifer,Nebraska,Pierce County,42.36522222,-97.67163889
#422849099521503,0.0443681318681319,0.05290390061066753,3.549450549450552,4.232312048853403,Increasing,Increasing,,786.38,High Plains aquifer,Nebraska,Brown County,42.48027688,-99.87123605
#423148098300601,0.01649413673984085,0.01536612599123788,1.319530939187268,1.22929007929903,Increasing,No trend,Different,594.97,High Plains aquifer,Nebraska,Holt County,42.53000197,-98.50202773
#423432100404001,0.02333333333333334,0.02954385964912281,1.866666666666667,2.363508771929824,Increasing,Increasing,,892.15,High Plains aquifer,Nebraska,Cherry County,42.57555823,-100.6781945
#423730098560001,0.02412988430389623,0.0184734807086941,1.930390744311699,1.477878456695528,Increasing,No trend,Different,633.98,High Plains aquifer,Nebraska,Holt County,42.6250019,-98.93370562
#1102,-0.2749999999999986,-0.3081940144478844,-21.99999999999989,-24.65552115583075,Decreasing,Decreasing,,927.51,High Plains aquifer,Oklahoma,Texas County,36.67440501,-101.367425
#1120,-0.2991176470588223,-0.3428872180451131,-23.92941176470579,-27.43097744360905,Decreasing,Decreasing,,913.79,High Plains aquifer,Oklahoma,Texas County,36.63703424,-101.3135304
#1135,-0.07297619047619042,-0.02911278195488718,-5.838095238095233,-2.329022556390974,No trend,Decreasing,Different,903.12,High Plains aquifer,Oklahoma,Texas County,36.64585631,-101.2775323
#1156,-0.09916666666666672,-0.03085714285714294,-7.933333333333338,-2.468571428571435,Decreasing,Decreasing,,864.72,High Plains aquifer,Oklahoma,Texas County,36.60964834,-101.1157675
#121,-0.005277777777778405,0.004736842105263114,-0.4222222222222724,0.3789473684210491,No trend,No trend,,857.71,High Plains aquifer,Oklahoma,Beaver County,36.53377533,-100.4975397
#1246,-0.4599999999999994,-0.4641729323308272,-36.79999999999995,-37.13383458646617,Decreasing,Decreasing,,941.53,High Plains aquifer,Oklahoma,Texas County,36.68570854,-101.43854
#1316,-0.7304166666666692,-0.7400075187969927,-58.43333333333354,-59.20060150375942,Decreasing,Decreasing,,983.89,High Plains aquifer,Oklahoma,Texas County,36.84210865,-101.5372319
#1354,-0.7676470588235292,-0.7597719298245612,-61.41176470588234,-60.78175438596489,Decreasing,Decreasing,,940.0,High Plains aquifer,Oklahoma,Texas County,36.78331439,-101.3925997
#1362,-0.9262499999999998,-0.9670676691729324,-74.09999999999998,-77.3654135338346,Decreasing,Decreasing,,941.22,High Plains aquifer,Oklahoma,Texas County,36.83655026,-101.3672204
#14,0.01281746031746042,0.001586466165413533,1.025396825396834,0.1269172932330827,Increasing,No trend,Different,897.33,High Plains aquifer,Oklahoma,Beaver County,36.53057043,-100.8552862
#1421,-0.2290000000000003,-0.2299699248120301,-18.32000000000002,-18.39759398496241,Decreasing,Decreasing,,898.86,High Plains aquifer,Oklahoma,Texas County,36.76913292,-101.2248741
#1536,-0.3523076923076922,-0.3572105263157895,-28.18461538461537,-28.57684210526316,Decreasing,Decreasing,,1064.36,High Plains aquifer,Oklahoma,Texas County,36.90675997,-101.7757732
#1584,-0.292470588235295,-0.273390977443609,-23.3976470588236,-21.87127819548872,Decreasing,Decreasing,,1004.32,High Plains aquifer,Oklahoma,Texas County,36.8559107,-101.5863186
#1623,-1.434374999999999,-1.42278947368421,-114.7499999999999,-113.8231578947368,Decreasing,Decreasing,,968.96,High Plains aquifer,Oklahoma,Texas County,36.87142713,-101.4869271
#1638,-1.090999999999999,-1.114105263157894,-87.27999999999994,-89.12842105263155,Decreasing,Decreasing,,955.55,High Plains aquifer,Oklahoma,Texas County,36.92840381,-101.3606227
#1675,-0.2242857142857143,-0.2376315789473684,-17.94285714285715,-19.01052631578948,Decreasing,Decreasing,,923.85,High Plains aquifer,Oklahoma,Texas County,36.8982582,-101.2504341
#1679,-0.3349999999999973,-0.3568245614035087,-26.79999999999978,-28.5459649122807,Decreasing,Decreasing,,911.05,High Plains aquifer,Oklahoma,Texas County,36.87551907,-101.2072882
#1721,-0.4555952380952379,-0.4674586466165414,-36.44761904761903,-37.39669172932331,Decreasing,Decreasing,,851.0,High Plains aquifer,Oklahoma,Texas County,36.88429019,-100.9471054
#1771,-1.039166666666667,-1.01696992481203,-83.13333333333333,-81.35759398496239,Decreasing,Decreasing,,1091.79,High Plains aquifer,Oklahoma,Texas County,36.95992108,-101.8477979
#1810,-0.2399999999999949,-0.2160000000000002,-19.19999999999959,-17.28000000000002,Decreasing,Decreasing,,1054.61,High Plains aquifer,Oklahoma,Texas County,36.93592932,-101.7395198
#2325,-0.07500000000000032,-0.0699248120300752,-6.000000000000025,-5.593984962406015,Decreasing,Decreasing,,1231.09,High Plains aquifer,Oklahoma,Cimarron County,36.78845104,-102.3740438
#23621,-0.05166666666666633,-0.04124060150375937,-4.133333333333306,-3.299248120300749,No trend,Decreasing,Different,728.78,High Plains aquifer,Oklahoma,Roger Mills County,35.81087905,-99.85057286
#2644,0.06420168067226885,0.06912781954887215,5.136134453781508,5.530225563909772,Increasing,Increasing,,588.57,High Plains aquifer,Oklahoma,Roger Mills County,35.57902713,-99.96649179
#30176,-0.02029411764705885,-0.01713533834586469,-1.623529411764708,-1.370827067669175,No trend,No trend,,671.78,High Plains aquifer,Oklahoma,Beaver County,36.97565179,-100.2742504
#32157,-0.4692307692307693,-0.4534778121775025,-37.53846153846155,-36.27822497420021,Decreasing,Decreasing,,1281.38,High Plains aquifer,Oklahoma,Cimarron County,36.59532581,-102.5764809
#3257,-0.2119999999999997,-0.2144912280701754,-16.95999999999998,-17.15929824561404,Decreasing,Decreasing,,910.44,High Plains aquifer,Oklahoma,Ellis County,36.3624803,-99.99704004
#3270,-0.07062500000000016,-0.06239097744360907,-5.650000000000013,-4.991278195488726,Decreasing,Decreasing,,0.0,High Plains aquifer,Oklahoma,Ellis County,36.46273715,-99.65699054
#3302,-0.01499999999999879,-0.01740350877192984,-1.199999999999903,-1.392280701754387,No trend,No trend,,0.0,High Plains aquifer,Oklahoma,Ellis County,36.44911932,-99.91291232
#3348,-0.125,-0.1096140350877192,-10.0,-8.769122807017538,Decreasing,Decreasing,,0.0,High Plains aquifer,Oklahoma,Ellis County,36.52111475,-99.99825612
#33768,-0.1851923076923078,-0.1873007518796992,-14.81538461538463,-14.98406015037594,Decreasing,Decreasing,,347.78,High Plains aquifer,Oklahoma,Texas County,36.58564342,-101.2803478
#33928,-0.4949999999999996,-0.5095187969924811,-39.59999999999997,-40.76150375939849,Decreasing,Decreasing,,926.59,High Plains aquifer,Oklahoma,Texas County,36.94939999,-101.2346239
#349,-0.3387500000000045,-0.7539360902255638,-27.10000000000036,-60.31488721804511,Decreasing,Decreasing,,748.89,High Plains aquifer,Oklahoma,Beaver County,36.59763728,-100.0443143
#356,-0.09000000000000163,-0.0809699248120301,-7.200000000000131,-6.477593984962407,Decreasing,Decreasing,,0.0,High Plains aquifer,Oklahoma,Beaver County,36.74571279,-100.9238588
#37420,-0.01454545454545456,-0.01259649122807016,-1.163636363636365,-1.007719298245613,No trend,No trend,,319.43,High Plains aquifer,Oklahoma,Roger Mills County,35.63198869,-99.99685482
#37863,-0.3599999999999999,-0.3703157894736842,-28.79999999999999,-29.62526315789474,Decreasing,Decreasing,,258.47,High Plains aquifer,Oklahoma,Beaver County,36.93766004,-100.7839448
#428,-0.1100000000000006,-0.3999774436090227,-8.800000000000045,-31.99819548872182,Decreasing,Decreasing,,783.95,High Plains aquifer,Oklahoma,Beaver County,36.68856915,-100.4236158
#45,-0.01709790209790195,-0.01992481203007503,-1.367832167832156,-1.593984962406002,No trend,No trend,,349.91,High Plains aquifer,Oklahoma,Beaver County,36.50041639,-100.6791006
#5385,-0.1328571428571429,-0.1274035087719298,-10.62857142857143,-10.19228070175438,Decreasing,Decreasing,,305.71,High Plains aquifer,Oklahoma,Woodward County,36.30844249,-99.32381965
#5600,-0.493846153846154,-0.4554561403508772,-39.50769230769232,-36.43649122807018,Decreasing,Decreasing,,0.0,High Plains aquifer,Oklahoma,Cimarron County,36.63222125,-102.2481488
#572,0.1029924242424246,0.3715789473684211,8.239393939393963,29.72631578947369,No trend,Increasing,Different,840.94,High Plains aquifer,Oklahoma,Beaver County,36.86343454,-100.9092283
#715,-0.2339338235294118,-0.05935338345864669,-18.71470588235294,-4.748270676691735,Decreasing,Decreasing,,846.43,High Plains aquifer,Oklahoma,Beaver County,36.96659626,-100.8372078
#871,-0.5086666666666664,-0.5177894736842106,-40.69333333333331,-41.42315789473685,Decreasing,Decreasing,,964.69,High Plains aquifer,Oklahoma,Texas County,36.54356262,-101.4917903
#90,0.0599999999999973,0.0623308270676691,4.799999999999784,4.986466165413528,Increasing,Increasing,,873.56,High Plains aquifer,Oklahoma,Beaver County,36.52792169,-100.6152896
#9034,0.00869747899159676,0.009360902255639202,0.6957983193277407,0.7488721804511361,No trend,No trend,,800.71,High Plains aquifer,Oklahoma,Beaver County,36.61734873,-100.3137857
#9036,-0.07392307692307741,-0.07206015037593978,-5.913846153846193,-5.764812030075182,Decreasing,Decreasing,,845.52,High Plains aquifer,Oklahoma,Beaver County,36.63258322,-100.6576899
#9869,-0.4550000000000018,-0.5185614035087718,-36.40000000000015,-41.48491228070174,Decreasing,Decreasing,,377.95,High Plains aquifer,Oklahoma,Woodward County,36.24303251,-99.50277893
#425956101424101,0.01133333333333324,0.007147572673888462,0.9066666666666592,0.571805813911077,No trend,No trend,,1004.93,High Plains aquifer,South Dakota,Bennett County,42.99889085,-101.7118124
#430010099580601,0.01840161064425772,0.02430634581950374,1.472128851540618,1.944507665560299,Increasing,No trend,Different,725.42,High Plains aquifer,South Dakota,Tripp County,43.0027834,-99.9687296
#430027102311801,-0.006635496975850208,-0.004652565879801125,-0.5308397580680166,-0.37220527038409,Decreasing,No trend,Different,1004.62,High Plains aquifer,South Dakota,Oglala Lakota County,43.0074859,-102.5221056
#430027102311806,-0.04024115769496206,-0.03639053235263184,-3.219292615596965,-2.911242588210547,Decreasing,Decreasing,,1004.62,High Plains aquifer,South Dakota,Oglala Lakota County,43.0074859,-102.5221056
#430037099535601,-0.002409109477124199,0.009121424055634588,-0.1927287581699359,0.7297139244507671,No trend,No trend,,697.38,High Plains aquifer,South Dakota,Tripp County,43.01028277,-99.89928404
#430128099520001,0.01821428571428577,0.02626062753036441,1.457142857142862,2.100850202429152,Increasing,Increasing,,686.71,High Plains aquifer,South Dakota,Tripp County,43.02444902,-99.86706129
#430129099201201,0.01788437499999996,0.01950015805278962,1.430749999999997,1.56001264422317,No trend,No trend,,675.74,High Plains aquifer,South Dakota,Gregory County,43.02472278,-99.33704785
#430133100061501,0.0440909090909092,0.04583282726045885,3.527272727272736,3.666626180836708,Increasing,Increasing,,740.66,High Plains aquifer,South Dakota,Tripp County,43.02583921,-100.104567
#430148100471001,0.00642916666666662,0.006610557926347393,0.5143333333333295,0.5288446341077915,Increasing,No trend,Different,884.83,High Plains aquifer,South Dakota,Todd County,43.03083973,-100.7868093
#430154100411801,0.02550724637681162,0.02344351065039324,2.04057971014493,1.875480852031459,Increasing,No trend,Different,853.44,High Plains aquifer,South Dakota,Todd County,43.03222878,-100.68875
#430159100531001,0.001602564102563995,0.0003639165481270791,0.1282051282051196,0.02911332385016633,No trend,No trend,,869.59,High Plains aquifer,South Dakota,Todd County,43.03138889,-100.8863889
#430226100445201,0.008893939393939343,0.00812648174490279,0.7115151515151474,0.6501185395922232,No trend,No trend,,867.16,High Plains aquifer,South Dakota,Todd County,43.04056188,-100.7481967
#430253101420701,-0.03350000000000009,-0.03173751686909582,-2.680000000000007,-2.539001349527666,Decreasing,Decreasing,,994.87,High Plains aquifer,South Dakota,Bennett County,43.05083437,-101.7023688
#430255101291801,0.02142156862745097,0.01949274172958384,1.713725490196078,1.559419338366707,No trend,No trend,,975.36,High Plains aquifer,South Dakota,Bennett County,43.04694779,-101.4857035
#430258100471401,-0.01705128205128198,-0.008893188854489177,-1.364102564102559,-0.7114551083591342,No trend,No trend,,879.35,High Plains aquifer,South Dakota,Todd County,43.04722848,-100.7870871
#430310098574401,0.03026041666666657,0.03837263376737059,2.420833333333325,3.069810701389648,Increasing,Increasing,,592.23,High Plains aquifer,South Dakota,Gregory County,43.0527753,-98.96259116
#430310100245501,0.02041929824561406,0.01875553184763712,1.633543859649125,1.50044254781097,Increasing,No trend,Different,798.58,High Plains aquifer,South Dakota,Todd County,43.05334,-100.4156861
#430405098563401,0.05016129032258063,0.05436772805193857,4.012903225806451,4.349418244155085,Increasing,Increasing,,588.26,High Plains aquifer,South Dakota,Gregory County,43.06805281,-98.94314604
#430520101260401,0.0217823529411765,0.02202584727584729,1.74258823529412,1.762067782067783,Increasing,No trend,Different,941.83,High Plains aquifer,South Dakota,Bennett County,43.08889155,-101.4348712
#430521101223401,0.02069711538461539,0.02325268125268126,1.655769230769231,1.860214500214501,Increasing,No trend,Different,936.04,High Plains aquifer,South Dakota,Bennett County,43.08944782,-101.3782051
#430604100445401,-0.04374686716791946,-0.04759483167377902,-3.499749373433557,-3.807586533902322,Decreasing,Decreasing,,880.87,High Plains aquifer,South Dakota,Todd County,43.10111691,-100.7487524
#430609100434201,-0.04058823529411765,-0.03909830883515095,-3.247058823529412,-3.127864706812076,Decreasing,Decreasing,,872.64,High Plains aquifer,South Dakota,Todd County,43.10361695,-100.7298629
#430610100481701,0.004532428355957853,0.004122214319582755,0.3625942684766282,0.3297771455666204,No trend,No trend,,888.8,High Plains aquifer,South Dakota,Todd County,43.10361111,-100.8063889
#430620101234501,0.138888888888889,0.1336334709322325,11.11111111111112,10.6906776745786,Increasing,Increasing,,932.69,High Plains aquifer,South Dakota,Bennett County,43.10389157,-101.3970939
#430638099520801,0.0668421052631579,0.05404537786774628,5.347368421052632,4.323630229419702,Increasing,Increasing,,684.58,High Plains aquifer,South Dakota,Tripp County,43.11055914,-99.86928359
#430642101455801,0.006874999999999992,-0.002394955684429371,0.5499999999999994,-0.1915964547543497,No trend,No trend,,975.06,High Plains aquifer,South Dakota,Bennett County,43.11166586,-101.7665365
#430701100363001,-0.0001515151515146907,-0.00213278293773641,-0.01212121212117526,-0.1706226350189128,No trend,No trend,,860.45,High Plains aquifer,South Dakota,Todd County,43.11805556,-100.61
#430706101391001,-0.02142857142857122,0.01937876135244557,-1.714285714285698,1.550300908195646,Decreasing,No trend,Different,962.86,High Plains aquifer,South Dakota,Bennett County,43.11833325,-101.6532036
#430715101444701,-0.03265625000000005,-0.02734060984060982,-2.612500000000004,-2.187248787248785,Decreasing,Decreasing,,975.06,High Plains aquifer,South Dakota,Bennett County,43.11888831,-101.7295921
#430748100455601,-0.02241360089186153,-0.0233479532163742,-1.793088071348923,-1.867836257309936,Decreasing,No trend,Different,886.66,High Plains aquifer,South Dakota,Todd County,43.12916667,-100.7675
#430748102154801,0.06375000000000064,0.1177975576195392,5.100000000000051,9.423804609563133,Increasing,Increasing,,1050.65,High Plains aquifer,South Dakota,Oglala Lakota County,43.12943475,-102.2648778
#430757101223801,0.009176788124156642,0.007576147576147592,0.7341430499325313,0.6060918060918074,No trend,No trend,,925.98,High Plains aquifer,South Dakota,Bennett County,43.1275022,-101.3776498
#430757101264701,0.04318111455108357,0.04263899613899613,3.454489164086686,3.411119691119691,Increasing,Increasing,,938.78,High Plains aquifer,South Dakota,Bennett County,43.11750161,-101.4468158
#430825101151801,0.01119047619047616,0.01316053908159172,0.8952380952380932,1.052843126527337,Increasing,No trend,Different,902.21,High Plains aquifer,South Dakota,Bennett County,43.14278112,-101.2554283
#430832101364701,0.005416666666667069,0.006774446511288683,0.4333333333333655,0.5419557209030946,Increasing,No trend,Different,972.01,High Plains aquifer,South Dakota,Bennett County,43.14277732,-101.6137597
#430835101295001,0.01196969696969702,0.01141718641718642,0.957575757575762,0.9133749133749135,Increasing,No trend,Different,913.79,High Plains aquifer,South Dakota,Bennett County,43.14277797,-101.4945936
#430835101554601,0.0319047619047619,0.02107588357588357,2.552380952380952,1.686070686070686,Increasing,No trend,Different,1000.96,High Plains aquifer,South Dakota,Bennett County,43.14332963,-101.930428
#430837101211901,-0.01101190476190481,-0.01076887601887603,-0.880952380952385,-0.8615100815100823,Decreasing,No trend,Different,909.83,High Plains aquifer,South Dakota,Bennett County,43.14305757,-101.3557055
#430839100373801,-0.0147896825396825,-0.01401019440493123,-1.1831746031746,-1.120815552394499,Decreasing,No trend,Different,854.96,High Plains aquifer,South Dakota,Todd County,43.14417245,-100.6295818
#430840100445601,-0.02459935897435877,-0.02754899636478582,-1.967948717948702,-2.203919709182865,Decreasing,Decreasing,,871.12,High Plains aquifer,South Dakota,Todd County,43.14361111,-100.7488889
#430840101213601,-0.01816666666666738,-0.0123962778568042,-1.45333333333339,-0.9917022285443361,No trend,No trend,,911.35,High Plains aquifer,South Dakota,Bennett County,43.14305757,-101.3559833
#430840101213602,0.02340909090909093,0.01499561403508781,1.872727272727275,1.199649122807025,No trend,No trend,,911.35,High Plains aquifer,South Dakota,Bennett County,43.1427798,-101.3554277
#430842100411301,-0.007499999999999914,-0.01382456140350875,-0.5999999999999931,-1.1059649122807,No trend,No trend,,844.3,High Plains aquifer,South Dakota,Todd County,43.14472783,-100.6890283
#430923099461001,0.04366666666666665,0.05185762483130905,3.493333333333332,4.148609986504724,Increasing,Increasing,,701.34,High Plains aquifer,South Dakota,Tripp County,43.15639127,-99.76983717
#430923101484301,-0.008484848484848465,0.0004719699456541492,-0.6787878787878772,0.03775759565233194,No trend,No trend,,994.56,High Plains aquifer,South Dakota,Bennett County,43.15777547,-101.8120934
#430924100460601,-0.02740143369175623,-0.0291451319740793,-2.192114695340499,-2.331610557926344,Decreasing,Decreasing,,874.17,High Plains aquifer,South Dakota,Todd County,43.1575,-100.7691667
#430925101272001,0.01079999999999998,0.007791516212568851,0.8639999999999987,0.6233212970055081,Increasing,No trend,Different,911.05,High Plains aquifer,South Dakota,Bennett County,43.15722248,-101.4551495
#430928101532401,0.08880952380952387,0.09006363949088408,7.10476190476191,7.205091159270727,Increasing,Increasing,,1001.88,High Plains aquifer,South Dakota,Bennett County,43.15777436,-101.8909833
#430932100390001,-0.004828431372549027,-0.008541765449660194,-0.3862745098039222,-0.6833412359728155,No trend,No trend,,844.91,High Plains aquifer,South Dakota,Todd County,43.15833894,-100.6498604
#430949101292701,0.009166666666666668,0.009710854579275632,0.7333333333333335,0.7768683663420506,Increasing,No trend,Different,912.88,High Plains aquifer,South Dakota,Bennett County,43.16361068,-101.4912606
#430959100444001,-0.03300595238095288,-0.03438754544017704,-2.64047619047623,-2.751003635214163,No trend,Decreasing,Different,878.43,High Plains aquifer,South Dakota,Todd County,43.15806087,-100.7484748
#431006099163801,0.02000000000000017,0.02460198052303313,1.600000000000013,1.96815844184265,No trend,No trend,,659.89,High Plains aquifer,South Dakota,Gregory County,43.16833307,-99.27760033
#431010101211801,0.01794117647058827,0.01614591311959732,1.435294117647061,1.291673049567786,No trend,No trend,,901.9,High Plains aquifer,South Dakota,Bennett County,43.17139002,-101.3565389
#431018101152001,-0.01298076923076918,-0.006986176459860681,-1.038461538461534,-0.5588941167888545,No trend,No trend,,913.79,High Plains aquifer,South Dakota,Bennett County,43.17166914,-101.2559837
#431018101212001,0.03214583333333333,0.02443298561719614,2.571666666666666,1.954638849375691,Increasing,No trend,Different,900.99,High Plains aquifer,South Dakota,Bennett County,43.17166783,-101.3537611
#431020100243501,0.01789034132171387,0.01638355460723882,1.431227305737109,1.310684368579105,Increasing,No trend,Different,771.14,High Plains aquifer,South Dakota,Todd County,43.17222811,-100.4101309
#431022101555001,0.05500000000000016,0.04826950432213589,4.400000000000013,3.861560345770871,Increasing,Increasing,,1014.07,High Plains aquifer,South Dakota,Bennett County,43.17277351,-101.9312619
#431101099211901,0.01252450980392155,0.01999358974358974,1.001960784313724,1.599487179487179,No trend,No trend,,659.28,High Plains aquifer,South Dakota,Gregory County,43.18361136,-99.35565867
#431109100445901,-0.05101282051282048,-0.0532242769084874,-4.081025641025638,-4.257942152678992,Decreasing,Decreasing,,869.29,High Plains aquifer,South Dakota,Todd County,43.18666667,-100.7497222
#431136101200901,0.06547619047619056,0.05924344384870702,5.238095238095245,4.739475507896562,Increasing,Increasing,,907.69,High Plains aquifer,South Dakota,Bennett County,43.19333407,-101.3362612
#431153099212201,0.01719551282051283,0.01722224828017511,1.375641025641026,1.377779862414009,Increasing,No trend,Different,655.32,High Plains aquifer,South Dakota,Gregory County,43.19805576,-99.35649195
#431156099472601,0.02887096774193548,0.02519871794871794,2.309677419354838,2.015897435897435,Increasing,Increasing,,719.94,High Plains aquifer,South Dakota,Tripp County,43.19889094,-99.79094864
#431156099521701,-0.01499999999999968,-0.005465755735492558,-1.199999999999974,-0.4372604588394046,No trend,No trend,,728.47,High Plains aquifer,South Dakota,Tripp County,43.19889144,-99.87178368
#431255101212001,0.01864583333333325,0.0151186307765255,1.49166666666666,1.20949046212204,No trend,No trend,,923.54,High Plains aquifer,South Dakota,Bennett County,43.21583311,-101.3559835
#431330099484501,0.01506666666666667,0.01498970985155196,1.205333333333333,1.199176788124156,Increasing,No trend,Different,710.79,High Plains aquifer,South Dakota,Tripp County,43.22500189,-99.81289352
#431334099520701,-0.05088235294117638,-0.04534429824561399,-4.07058823529411,-3.627543859649119,Decreasing,Decreasing,,730.91,High Plains aquifer,South Dakota,Tripp County,43.22611332,-99.86900586
#431430100195901,0.0003611111111111083,0.0007270428323059755,0.02888888888888867,0.05816342658447804,No trend,No trend,,756.82,High Plains aquifer,South Dakota,Todd County,43.24111663,-100.3323511
#431434099462401,0.03425438596491226,0.02876501349527666,2.740350877192981,2.301201079622133,Increasing,Increasing,,713.54,High Plains aquifer,South Dakota,Tripp County,43.24277923,-99.77372596
#431458101483001,-0.04399999999999978,-0.05353027175782617,-3.519999999999982,-4.282421740626094,Decreasing,Decreasing,,1022.6,High Plains aquifer,South Dakota,Bennett County,43.24944047,-101.8087617
#431530101264101,0.06895833333333334,0.06036979704162367,5.516666666666667,4.829583763329894,No trend,Increasing,Different,893.98,High Plains aquifer,South Dakota,Bennett County,43.25860885,-101.4301503
#431531101282701,0.06576388888888893,0.06749980243401295,5.261111111111115,5.399984194721036,Increasing,Increasing,,896.11,High Plains aquifer,South Dakota,Bennett County,43.25860823,-101.4745948
#431608100051101,0.008333333333333328,0.009340587044534415,0.6666666666666663,0.7472469635627532,No trend,No trend,,740.66,High Plains aquifer,South Dakota,Tripp County,43.26889209,-100.0867893
#431703099502901,0.007199999999999989,0.006712550607287451,0.5759999999999991,0.5370040485829961,No trend,No trend,,669.95,High Plains aquifer,South Dakota,Tripp County,43.2841679,-99.84178333
#431714099510501,0.03545454545454547,0.0337619770580297,2.836363636363637,2.700958164642376,Increasing,Increasing,,680.01,High Plains aquifer,South Dakota,Tripp County,43.28722345,-99.85178361
#431958101582101,0.002299679487179599,0.0003682629998419677,0.1839743589743679,0.02946103998735742,No trend,No trend,,1041.81,High Plains aquifer,South Dakota,Bennett County,43.33360669,-101.9745965
#432038101223501,0.01273958333333356,0.01270566619250833,1.019166666666685,1.016453295400667,No trend,No trend,,859.54,High Plains aquifer,South Dakota,Bennett County,43.34555444,-101.3765376
#432310101045501,0.1541666666666666,0.1503310973512212,12.33333333333333,12.0264877880977,Increasing,Increasing,,795.53,High Plains aquifer,South Dakota,Todd County,43.38889056,-101.0784803
#432411101080701,-0.003801282051282055,-0.007498221906116645,-0.3041025641025644,-0.5998577524893316,No trend,No trend,,804.67,High Plains aquifer,South Dakota,Mellette County,43.40333452,-101.1373691
#432554101065601,0.0778436147186147,0.07153330962541489,6.227489177489176,5.722664770033191,Increasing,Increasing,,785.16,High Plains aquifer,South Dakota,Mellette County,43.4325011,-101.1179242
#432740101223501,-0.001481481481481417,0.006228070175438557,-0.1185185185185134,0.4982456140350846,No trend,No trend,,795.83,High Plains aquifer,South Dakota,Jackson County,43.46222166,-101.3757023
#433020101394201,0.06187499999999968,0.06611713106295138,4.949999999999974,5.28937048503611,Increasing,Increasing,,870.2,High Plains aquifer,South Dakota,Jackson County,43.50555482,-101.6620914
#433100102002101,0.06999999999999998,0.06899967824967826,5.599999999999998,5.51997425997426,Increasing,Increasing,,893.06,High Plains aquifer,South Dakota,Jackson County,43.51555436,-102.0062623
#1004901,-0.06111111111111181,-0.06230646514494403,-4.888888888888944,-4.984517211595523,Decreasing,Decreasing,,1203.05,High Plains aquifer,Texas,Deaf Smith County,34.895555,-102.527777
#1005905,-0.7233333333333329,-0.739894736842105,-57.86666666666663,-59.19157894736841,Decreasing,Decreasing,,1176.83,High Plains aquifer,Texas,Deaf Smith County,34.9,-102.407223
#1012504,-0.74333333333333,-0.7465428276573788,-59.4666666666664,-59.7234262125903,Decreasing,Decreasing,,1198.47,High Plains aquifer,Texas,Deaf Smith County,34.82,-102.546667
#1013305,-0.6299999999999955,-0.5946491228070179,-50.39999999999964,-47.57192982456143,Decreasing,Decreasing,,1168.6,High Plains aquifer,Texas,Deaf Smith County,34.87,-102.404445
#1013307,-0.6933333333333351,-0.6777708978328174,-55.46666666666681,-54.2216718266254,Decreasing,Decreasing,,1167.38,High Plains aquifer,Texas,Deaf Smith County,34.8475,-102.404445
#1013404,-0.3860000000000004,-0.3888028895768836,-30.88000000000003,-31.10423116615069,Decreasing,Decreasing,,1182.01,High Plains aquifer,Texas,Deaf Smith County,34.79,-102.471667
#1017501,-0.07857142857142918,-0.07994736842105267,-6.285714285714334,-6.395789473684213,Decreasing,Decreasing,,1314.3,High Plains aquifer,Texas,Parmer County,34.71,-102.949167
#1017602,-0.1362499999999995,-0.1353684210526315,-10.89999999999996,-10.82947368421052,Decreasing,Decreasing,,1268.58,High Plains aquifer,Texas,Parmer County,34.68,-102.896945
#1018302,0.1074999999999999,0.1123839009287925,8.599999999999994,8.990712074303403,Increasing,Increasing,,1241.45,High Plains aquifer,Texas,Parmer County,34.745,-102.761112
#1018701,0.046875,0.07070175438596493,3.75,5.656140350877195,Increasing,Increasing,,1251.81,High Plains aquifer,Texas,Parmer County,34.65,-102.855001
#1019202,-0.2453846153846152,-0.2695252837977296,-19.63076923076922,-21.56202270381837,Decreasing,Decreasing,,1239.62,High Plains aquifer,Texas,Parmer County,34.728889,-102.688611
#1019602,-0.4438461538461546,-0.4688648090815275,-35.50769230769237,-37.5091847265222,Decreasing,Decreasing,,1224.99,High Plains aquifer,Texas,Parmer County,34.685,-102.663056
#1020201,-0.1038461538461534,-0.1045304437564497,-8.307692307692273,-8.362435500515973,Decreasing,Decreasing,,1207.62,High Plains aquifer,Texas,Parmer County,34.723611,-102.575
#1021205,-0.3400000000000002,-0.3379566563467493,-27.20000000000002,-27.03653250773994,Decreasing,Decreasing,,1183.84,High Plains aquifer,Texas,Castro County,34.734722,-102.424167
#1021605,-0.2969999999999999,-0.2971929824561403,-23.75999999999999,-23.77543859649122,Decreasing,Decreasing,,1176.22,High Plains aquifer,Texas,Castro County,34.674444,-102.398334
#1022203,-0.2974999999999994,-0.2825696594427246,-23.79999999999995,-22.60557275541796,Decreasing,Decreasing,,1171.35,High Plains aquifer,Texas,Castro County,34.733611,-102.317222
#1022404,-0.3328571428571436,-0.3321052631578945,-26.62857142857149,-26.56842105263156,Decreasing,Decreasing,,1171.35,High Plains aquifer,Texas,Castro County,34.7,-102.373055
#1022602,-0.1859999999999999,-0.188390092879257,-14.88,-15.07120743034056,Decreasing,Decreasing,,1161.59,High Plains aquifer,Texas,Castro County,34.68,-102.282222
#1022801,-0.2525000000000001,-0.2570588235294118,-20.20000000000001,-20.56470588235294,Decreasing,Decreasing,,1169.82,High Plains aquifer,Texas,Castro County,34.66,-102.3147222
#1022903,0.001333333333333542,0.01178947368421062,0.1066666666666833,0.94315789473685,No trend,No trend,,1166.77,High Plains aquifer,Texas,Castro County,34.644722,-102.273889
#1023703,-0.01999999999999957,0.001382868937048544,-1.599999999999966,0.1106295149638835,No trend,No trend,,1161.59,High Plains aquifer,Texas,Castro County,34.643889,-102.238889
#1023902,-0.03999999999999915,-0.03814241486068102,-3.199999999999932,-3.051393188854481,Decreasing,Decreasing,,1160.37,High Plains aquifer,Texas,Castro County,34.657501,-102.139167
#1024401,-0.03000000000000114,-0.0329721362229102,-2.400000000000091,-2.637770897832816,Decreasing,Decreasing,,1153.97,High Plains aquifer,Texas,Castro County,34.69,-102.099167
#1024501,-0.01374999999999993,-0.01303405572755413,-1.099999999999994,-1.04272445820433,Decreasing,No trend,Different,1136.6,High Plains aquifer,Texas,Castro County,34.69,-102.042222
#1024802,0.05250000000000021,0.06618163054695558,4.200000000000017,5.294530443756447,Increasing,Increasing,,1138.12,High Plains aquifer,Texas,Castro County,34.66,-102.059445
#1024901,0.02846153846153881,0.02347781217750256,2.276923076923105,1.878224974200205,Increasing,No trend,Different,1129.89,High Plains aquifer,Texas,Castro County,34.65,-102.008334
#1025103,0.03000000000000019,0.02917543859649147,2.400000000000015,2.334035087719318,Increasing,Increasing,,1297.23,High Plains aquifer,Texas,Parmer County,34.611389,-102.963889
#1025301,0.1014285714285726,0.1064035087719297,8.114285714285804,8.512280701754378,Increasing,Increasing,,1277.42,High Plains aquifer,Texas,Parmer County,34.600834,-102.896667
#1025402,0.04076923076923086,0.04175438596491235,3.261538461538469,3.340350877192988,Increasing,Increasing,,1288.39,High Plains aquifer,Texas,Parmer County,34.579722,-102.973611
#1025914,-0.3626666666666675,-0.3748947368421054,-29.0133333333334,-29.99157894736843,Decreasing,Decreasing,,1240.84,High Plains aquifer,Texas,Parmer County,34.53,-102.881667
#1026102,-0.2066666666666663,-0.2172105263157893,-16.5333333333333,-17.37684210526315,Decreasing,Decreasing,,1264.62,High Plains aquifer,Texas,Parmer County,34.605278,-102.860834
#1026402,-0.3100000000000001,-0.3111578947368423,-24.80000000000001,-24.89263157894738,Decreasing,Decreasing,,1260.35,High Plains aquifer,Texas,Parmer County,34.563612,-102.865556
#1026502,-0.5341666666666663,-0.541640866873065,-42.73333333333331,-43.3312693498452,Decreasing,Decreasing,,1250.29,High Plains aquifer,Texas,Parmer County,34.553612,-102.801389
#1026603,-0.65625,-0.6569143446852422,-52.5,-52.55314757481938,Decreasing,Decreasing,,1240.84,High Plains aquifer,Texas,Parmer County,34.55,-102.751945
#1026802,-1.053076923076923,-1.093467492260062,-84.24615384615382,-87.47739938080493,Decreasing,Decreasing,,1233.53,High Plains aquifer,Texas,Parmer County,34.510001,-102.805556
#1027501,-0.4899999999999996,-0.5166460268317852,-39.19999999999997,-41.33168214654282,Decreasing,Decreasing,,1246.94,High Plains aquifer,Texas,Parmer County,34.569444,-102.683611
#1027902,-1.21,-1.212438596491228,-96.79999999999998,-96.99508771929825,Decreasing,Decreasing,,1221.94,High Plains aquifer,Texas,Parmer County,34.5225,-102.666389
#1028103,-0.6900000000000001,-0.6893085655314756,-55.2,-55.14468524251804,Decreasing,Decreasing,,1232.61,High Plains aquifer,Texas,Parmer County,34.591389,-102.604723
#1028301,-0.4518181818181817,-0.4559133126934985,-36.14545454545454,-36.47306501547988,Decreasing,Decreasing,,1215.85,High Plains aquifer,Texas,Castro County,34.595834,-102.516944
#1028501,-0.7599999999999909,-0.7230546955624357,-60.79999999999927,-57.84437564499486,Decreasing,Decreasing,,1221.64,High Plains aquifer,Texas,Parmer County,34.5519444,-102.5663889
#1029201,-0.3699999999999998,-0.3668627450980397,-29.59999999999999,-29.34901960784318,Decreasing,Decreasing,,1204.87,High Plains aquifer,Texas,Castro County,34.590556,-102.456112
#1029302,-0.1675000000000004,-0.1622394220846234,-13.40000000000003,-12.97915376676987,Decreasing,Decreasing,,1200.0,High Plains aquifer,Texas,Castro County,34.61,-102.403889
#1029603,-0.6866666666666664,-0.7053859649122811,-54.93333333333332,-56.43087719298249,Decreasing,Decreasing,,1194.82,High Plains aquifer,Texas,Castro County,34.567778,-102.405834
#1030103,-0.3333333333333333,-0.3382972136222913,-26.66666666666666,-27.0637770897833,Decreasing,Decreasing,,1188.72,High Plains aquifer,Texas,Castro County,34.598056,-102.355556
#1030301,0.01222222222222216,-0.004850361197110581,0.9777777777777727,-0.3880288957688465,No trend,No trend,,1164.95,High Plains aquifer,Texas,Castro County,34.61,-102.265834
#1030505,-0.2108333333333334,-0.212156862745098,-16.86666666666667,-16.97254901960784,Decreasing,Decreasing,,1183.23,High Plains aquifer,Texas,Castro County,34.57,-102.314167
#1031201,-0.2063636363636366,-0.2155830753353971,-16.50909090909093,-17.24664602683177,Decreasing,Decreasing,,1154.58,High Plains aquifer,Texas,Castro County,34.584167,-102.185
#1031601,-0.1120000000000005,-0.1195459236326112,-8.960000000000036,-9.5636738906089,Decreasing,Decreasing,,1146.35,High Plains aquifer,Texas,Castro County,34.57,-102.141111
#1031803,-0.7133333333333335,-0.695456140350877,-57.06666666666668,-55.63649122807016,Decreasing,Decreasing,,1150.32,High Plains aquifer,Texas,Castro County,34.52,-102.1775
#1032301,-0.1749999999999972,-0.1803921568627452,-13.99999999999977,-14.43137254901962,Decreasing,Decreasing,,1128.67,High Plains aquifer,Texas,Castro County,34.61,-102.020555
#1032502,-0.05411764705882322,-0.03478844169246621,-4.329411764705857,-2.783075335397297,Decreasing,Decreasing,,1140.26,High Plains aquifer,Texas,Castro County,34.57,-102.068889
#1032601,-0.12,-0.1348503611971103,-9.599999999999998,-10.78802889576883,Decreasing,Decreasing,,1119.53,High Plains aquifer,Texas,Castro County,34.558889,-102.005834
#1032703,-0.2233333333333339,-0.2345510835913312,-17.86666666666671,-18.7640866873065,Decreasing,Decreasing,,1149.71,High Plains aquifer,Texas,Castro County,34.53,-102.1236111
#1033103,-0.978749999999998,-1.002043343653251,-78.29999999999984,-80.16346749226004,Decreasing,Decreasing,,1270.71,High Plains aquifer,Texas,Parmer County,34.467222,-102.989167
#1033311,-0.4180000000000007,-0.4228482972136222,-33.44000000000005,-33.82786377708977,Decreasing,Decreasing,,1246.63,High Plains aquifer,Texas,Parmer County,34.487222,-102.890556
#1033803,-0.592222222222222,-0.5758307533539729,-47.37777777777776,-46.06646026831783,Decreasing,Decreasing,,1257.91,High Plains aquifer,Texas,Parmer County,34.410001,-102.938334
#1033902,-0.8000000000000005,-0.828482972136223,-64.00000000000004,-66.27863777089784,Decreasing,Decreasing,,1234.14,High Plains aquifer,Texas,Parmer County,34.38,-102.885278
#1034102,-1.185625000000001,-1.205824561403509,-94.85000000000007,-96.46596491228073,Decreasing,Decreasing,,1239.93,High Plains aquifer,Texas,Parmer County,34.5,-102.843889
#1034403,-0.8468749999999998,-0.8550175438596492,-67.74999999999999,-68.40140350877193,Decreasing,Decreasing,,1247.24,High Plains aquifer,Texas,Parmer County,34.422778,-102.860834
#1034603,-0.7616666666666655,-0.7764912280701755,-60.93333333333324,-62.11929824561403,Decreasing,Decreasing,,1233.53,High Plains aquifer,Texas,Parmer County,34.437778,-102.79
#1034802,-0.3560000000000002,-0.3505366357069144,-28.48000000000002,-28.04293085655315,Decreasing,Decreasing,,1235.66,High Plains aquifer,Texas,Parmer County,34.400834,-102.815834
#1035503,-0.8087499999999999,-0.7745407636738906,-64.69999999999999,-61.96326109391124,Decreasing,Decreasing,,1219.81,High Plains aquifer,Texas,Parmer County,34.450556,-102.696389
#1035603,-0.7030769230769232,-0.7439525283797731,-56.24615384615385,-59.51620227038185,Decreasing,Decreasing,,1203.05,High Plains aquifer,Texas,Parmer County,34.443334,-102.639445
#1035706,-0.25,-0.2557719298245614,-20.0,-20.46175438596492,Decreasing,Decreasing,,1220.42,High Plains aquifer,Texas,Parmer County,34.389445,-102.745
#1035707,-0.6292857142857144,-0.6382765737874094,-50.34285714285716,-51.06212590299275,Decreasing,Decreasing,,1228.95,High Plains aquifer,Texas,Parmer County,34.42,-102.738889
#1035802,-0.9484615384615384,-0.9597316821465428,-75.87692307692306,-76.77853457172343,Decreasing,Decreasing,,1212.19,High Plains aquifer,Texas,Parmer County,34.42,-102.671667
#1035904,-0.8216666666666667,-0.8417017543859647,-65.73333333333333,-67.33614035087717,Decreasing,Decreasing,,1207.92,High Plains aquifer,Texas,Parmer County,34.4,-102.637222
#1036102,-0.9821428571428571,-0.9957378740970071,-78.57142857142857,-79.65902992776057,Decreasing,Decreasing,,1201.83,High Plains aquifer,Texas,Parmer County,34.486111,-102.588334
#1036602,-0.6933333333333328,-0.7161300309597521,-55.46666666666663,-57.29040247678017,Decreasing,Decreasing,,1188.42,High Plains aquifer,Texas,Parmer County,34.44,-102.539167
#1037403,-0.87888888888889,-0.8908255933952527,-70.3111111111112,-71.26604747162021,Decreasing,Decreasing,,1173.78,High Plains aquifer,Texas,Castro County,34.42,-102.497222
#1037601,-1.375999999999999,-1.39859649122807,-110.0799999999999,-111.8877192982456,Decreasing,Decreasing,,1158.85,High Plains aquifer,Texas,Castro County,34.44,-102.400834
#1038101,-1.416363636363636,-1.436615067079464,-113.3090909090909,-114.9292053663571,Decreasing,Decreasing,,1158.85,High Plains aquifer,Texas,Castro County,34.46,-102.352223
#1038401,-1.5,-1.526109391124871,-120.0,-122.0887512899897,Decreasing,Decreasing,,1155.8,High Plains aquifer,Texas,Castro County,34.421389,-102.366112
#1038603,-1.477857142857143,-1.472260061919505,-118.2285714285714,-117.7808049535604,Decreasing,Decreasing,,1138.12,High Plains aquifer,Texas,Castro County,34.44,-102.260278
#1039702,-1.556,-1.554614035087719,-124.48,-124.3691228070175,Decreasing,Decreasing,,1128.67,High Plains aquifer,Texas,Castro County,34.38,-102.233611
#1039901,-1.38,-1.395245614035088,-110.4,-111.619649122807,Decreasing,Decreasing,,1120.75,High Plains aquifer,Texas,Castro County,34.39,-102.153334
#1040301,-0.4191666666666667,-0.4226109391124873,-33.53333333333334,-33.80887512899898,Decreasing,Decreasing,,1110.08,High Plains aquifer,Texas,Castro County,34.49,-102.006389
#1040402,-1.248,-1.272311661506708,-99.84000000000003,-101.7849329205366,Decreasing,Decreasing,,1124.41,High Plains aquifer,Texas,Castro County,34.42,-102.107778
#1040502,-1.065833333333334,-1.112693498452012,-85.26666666666671,-89.015479876161,Decreasing,Decreasing,,1128.67,High Plains aquifer,Texas,Castro County,34.45,-102.0708333
#1040503,-1.283333333333331,-1.254726522187822,-102.6666666666665,-100.3781217750258,Decreasing,Decreasing,,1118.92,High Plains aquifer,Texas,Castro County,34.43,-102.043334
#1041209,-1.030000000000001,-1.04880701754386,-82.40000000000009,-83.9045614035088,Decreasing,Decreasing,,1237.79,High Plains aquifer,Texas,Parmer County,34.346667,-102.956112
#1041403,-0.7709999999999994,-0.8269824561403508,-61.67999999999995,-66.15859649122807,Decreasing,Decreasing,,1238.1,High Plains aquifer,Texas,Parmer County,34.33,-102.983611
#1042104,-1.585,-1.628937048503612,-126.8,-130.314963880289,Decreasing,Decreasing,,1217.98,High Plains aquifer,Texas,Parmer County,34.35,-102.8475
#1042202,-0.4081818181818177,-0.414719298245614,-32.65454545454541,-33.17754385964912,Decreasing,Decreasing,,1222.25,High Plains aquifer,Texas,Parmer County,34.37,-102.803889
#1042302,-1.623076923076924,-1.616052631578948,-129.8461538461539,-129.2842105263158,Decreasing,Decreasing,,1203.96,High Plains aquifer,Texas,Parmer County,34.35,-102.766667
#1042506,-1.900000000000001,-1.927350877192982,-152.0000000000001,-154.1880701754386,Decreasing,Decreasing,,1205.79,High Plains aquifer,Texas,Parmer County,34.33,-102.800556
#1043501,-1.3775,-1.39422084623323,-110.2,-111.5376676986584,Decreasing,Decreasing,,1168.6,N100HGHPLN,Texas,17,34.297222,-102.689167
#1044103,-0.9450000000000003,-0.9541795665634674,-75.60000000000002,-76.33436532507739,Decreasing,Decreasing,,1186.89,High Plains aquifer,Texas,Parmer County,34.36,-102.612223
#1044203,-0.4011764705882357,-0.4173477812177505,-32.09411764705886,-33.38782249742004,Decreasing,Decreasing,,1180.8,High Plains aquifer,Texas,Parmer County,34.365278,-102.542222
#1044404,-1.960000000000008,-1.961847265221878,-156.8000000000006,-156.9477812177502,Decreasing,Decreasing,,1164.95,High Plains aquifer,Texas,Lamb County,34.306389,-102.595278
#1044503,-1.768333333333333,-1.792776057791537,-141.4666666666667,-143.422084623323,Decreasing,Decreasing,,1158.54,High Plains aquifer,Texas,Lamb County,34.3,-102.543611
#1044711,-0.8716666666666661,-0.8997832817337461,-69.73333333333329,-71.98266253869969,Decreasing,Decreasing,,1142.09,High Plains aquifer,Texas,Lamb County,34.251112,-102.596667
#1045702,-0.4169230769230771,-0.423581011351909,-33.35384615384616,-33.88648090815272,Decreasing,Decreasing,,1139.65,High Plains aquifer,Texas,Lamb County,34.261389,-102.498056
#1045804,-0.432857142857143,-0.4366976264189886,-34.62857142857144,-34.93581011351909,Decreasing,Decreasing,,1149.4,High Plains aquifer,Texas,Lamb County,34.29,-102.445
#1045904,-0.3723076923076915,-0.386676986584107,-29.78461538461531,-30.93415892672856,Decreasing,Decreasing,,1143.0,High Plains aquifer,Texas,Lamb County,34.272778,-102.401945
#1046302,-1.123076923076924,-1.134932920536636,-89.8461538461539,-90.79463364293088,Decreasing,Decreasing,,1131.42,High Plains aquifer,Texas,Castro County,34.340556,-102.277778
#1046407,-0.6883333333333326,-0.7095768833849329,-55.06666666666661,-56.76615067079463,Decreasing,Decreasing,,1142.39,High Plains aquifer,Texas,Castro County,34.319444,-102.344445
#1046601,-0.5185714285714289,-0.5433023735810114,-41.48571428571431,-43.46418988648091,Decreasing,Decreasing,,1133.86,High Plains aquifer,Texas,Lamb County,34.2975,-102.285556
#1048302,-0.9906944444444443,-1.001421052631579,-79.25555555555555,-80.11368421052634,Decreasing,Decreasing,,1097.58,High Plains aquifer,Texas,Castro County,34.352501,-102.038334
#1051909,-0.06131367854939494,-0.06244003154726861,-4.905094283951596,-4.995202523781489,Decreasing,Decreasing,,1170.74,N100HGHPLN,Texas,17,34.146666,-102.658333
#1052406,-0.1792307692307696,-0.1971929824561405,-14.33846153846157,-15.77543859649124,Decreasing,Decreasing,,1151.53,High Plains aquifer,Texas,Lamb County,34.169444,-102.596667
#1052509,-0.1235714285714286,-0.1321362229102167,-9.885714285714288,-10.57089783281734,Decreasing,Decreasing,,1136.9,High Plains aquifer,Texas,Lamb County,34.201389,-102.578055
#1052601,-0.3559999999999995,-0.3582765737874097,-28.47999999999996,-28.66212590299277,Decreasing,Decreasing,,1127.46,High Plains aquifer,Texas,Lamb County,34.183611,-102.517222
#1052715,-0.1292307692307692,-0.1356315789473684,-10.33846153846154,-10.85052631578947,Decreasing,Decreasing,,1164.03,High Plains aquifer,Texas,Lamb County,34.136111,-102.594445
#1052813,-0.1577777777777776,-0.1581114551083591,-12.62222222222221,-12.64891640866873,Decreasing,Decreasing,,1152.14,High Plains aquifer,Texas,Lamb County,34.136111,-102.559723
#1053101,-0.1623076923076923,-0.2358204334365326,-12.98461538461538,-18.86563467492261,Decreasing,Decreasing,,1126.24,High Plains aquifer,Texas,Lamb County,34.218055,-102.461389
#1053307,-0.7284615384615378,-0.7139649122807016,-58.27692307692303,-57.11719298245612,Decreasing,Decreasing,,1127.15,High Plains aquifer,Texas,Lamb County,34.230555,-102.379444
#1053602,-0.1323811429157692,-0.1391897749205455,-10.59049143326154,-11.13518199364364,Decreasing,Decreasing,,1117.7,High Plains aquifer,Texas,Lamb County,34.169443,-102.402777
#1054301,-1.158461538461539,-1.188524251805986,-92.67692307692309,-95.08194014447884,Decreasing,Decreasing,,1122.88,High Plains aquifer,Texas,Lamb County,34.244445,-102.262778
#1054404,-0.9966666666666661,-1.05827657378741,-79.73333333333329,-84.66212590299278,Decreasing,Decreasing,,1119.23,High Plains aquifer,Texas,Lamb County,34.200834,-102.360001
#1054801,-1.157500000000001,-1.224396284829721,-92.60000000000005,-97.95170278637771,Decreasing,Decreasing,,1111.3,High Plains aquifer,Texas,Lamb County,34.148889,-102.308612
#1055305,-1.011666666666667,-1.057698658410733,-80.93333333333334,-84.6158926728586,Decreasing,Decreasing,,1108.25,High Plains aquifer,Texas,Lamb County,34.238889,-102.149722
#1056203,-0.6300000000000002,-0.641421052631579,-50.40000000000002,-51.31368421052632,Decreasing,Decreasing,,1089.96,High Plains aquifer,Texas,Hale County,34.23,-102.049167
#1056403,-0.6223076923076926,-0.635655314757482,-49.78461538461541,-50.85242518059857,Decreasing,Decreasing,,1094.84,High Plains aquifer,Texas,Lamb County,34.168889,-102.101389
#1056602,-0.5020000000000001,-0.5277543859649124,-40.16000000000001,-42.22035087719299,Decreasing,Decreasing,,1082.34,High Plains aquifer,Texas,Hale County,34.198889,-102.040556
#1056801,-0.4908333333333332,-0.4906842105263154,-39.26666666666666,-39.25473684210524,Decreasing,Decreasing,,1082.65,High Plains aquifer,Texas,Hale County,34.16,-102.075555
#1060105,-0.3469230769230773,-0.362466460268318,-27.75384615384619,-28.99731682146544,Decreasing,Decreasing,,1167.08,High Plains aquifer,Texas,Lamb County,34.098334,-102.590278
#1060501,0.02999999999999971,0.02883384932920541,2.399999999999977,2.306707946336433,No trend,Increasing,Different,1174.39,High Plains aquifer,Texas,Lamb County,34.064445,-102.580555
#1060604,-0.12,-0.1179669762641898,-9.600000000000001,-9.437358101135185,Decreasing,Decreasing,,1156.72,High Plains aquifer,Texas,Lamb County,34.058889,-102.537222
#1060802,-0.08214285714285705,-0.07442724458204326,-6.571428571428564,-5.954179566563461,Decreasing,Decreasing,,1150.92,High Plains aquifer,Texas,Lamb County,34.011667,-102.555278
#1061105,-0.7123076923076922,-0.7430443756449949,-56.98461538461537,-59.44355005159959,Decreasing,Decreasing,,1116.18,High Plains aquifer,Texas,Lamb County,34.12,-102.460278
#1061201,-0.9023076923076926,-0.9199174406604749,-72.18461538461541,-73.593395252838,Decreasing,Decreasing,,1111.61,High Plains aquifer,Texas,Lamb County,34.114445,-102.418611
#1061404,-0.221666666666667,-0.225201238390093,-17.73333333333336,-18.01609907120744,Decreasing,Decreasing,,1121.05,High Plains aquifer,Texas,Lamb County,34.059445,-102.461667
#1061604,-0.517692307692308,-0.5417337461300309,-41.41538461538464,-43.33869969040247,Decreasing,Decreasing,,1111.91,High Plains aquifer,Texas,Lamb County,34.06,-102.407501
#1062210,-0.8549999999999999,-0.8711558307533541,-68.39999999999999,-69.69246646026834,Decreasing,Decreasing,,1107.34,High Plains aquifer,Texas,Lamb County,34.084167,-102.296389
#1063601,-0.7150000000000016,-0.745964912280702,-57.20000000000013,-59.67719298245616,Decreasing,Decreasing,,1085.39,High Plains aquifer,Texas,Lamb County,34.06,-102.160278
#1063702,-0.2821428571428574,-0.2865737874097007,-22.57142857142859,-22.92590299277606,Decreasing,Decreasing,,1090.88,High Plains aquifer,Texas,Lamb County,34.013612,-102.223333
#1064105,-0.6683333333333336,-0.6959855521155833,-53.46666666666668,-55.67884416924667,Decreasing,Decreasing,,1078.69,High Plains aquifer,Texas,Lamb County,34.100834,-102.099722
#1064204,-0.5288235294117648,-0.5264912280701753,-42.30588235294118,-42.11929824561403,Decreasing,Decreasing,,1071.68,High Plains aquifer,Texas,Hale County,34.113056,-102.049167
#1064803,-1.041333333333333,-1.057333333333333,-83.30666666666662,-84.58666666666666,Decreasing,Decreasing,,1070.46,High Plains aquifer,Texas,Hale County,34.04,-102.069444
#1112803,0.2533333333333335,0.2562538699690403,20.26666666666668,20.50030959752323,Increasing,Increasing,,1043.03,High Plains aquifer,Texas,Armstrong County,34.791111,-101.571389
#1121801,-0.03571428571428571,-0.03491228070175431,-2.857142857142857,-2.792982456140345,No trend,Decreasing,Different,1018.64,High Plains aquifer,Texas,Briscoe County,34.643334,-101.434722
#1129703,0.02124999999999999,0.01787409700722396,1.699999999999999,1.429927760577917,No trend,No trend,,997.0,High Plains aquifer,Texas,Briscoe County,34.513889,-101.470278
#1137701,-0.282,-0.2877719298245614,-22.56,-23.02175438596491,Decreasing,Decreasing,,1012.24,High Plains aquifer,Texas,Briscoe County,34.39,-101.4609667
#1137914,-0.1645454545454547,-0.1927347781217751,-13.16363636363638,-15.41878224974201,Decreasing,Decreasing,,1009.8,High Plains aquifer,Texas,Briscoe County,34.39,-101.4111111
#1138109,-0.08250000000000002,-0.08961816305469557,-6.600000000000001,-7.169453044375645,Decreasing,Decreasing,,1004.62,High Plains aquifer,Texas,Briscoe County,34.48,-101.34
#1138402,-0.09483516483516466,-0.1021503759398496,-7.586813186813172,-8.172030075187966,Decreasing,Decreasing,,1002.49,High Plains aquifer,Texas,Briscoe County,34.42,-101.3497222
#1138728,-0.07845238095238066,-0.06827067669172922,-6.276190476190453,-5.461654135338337,Decreasing,Decreasing,,999.74,High Plains aquifer,Texas,Briscoe County,34.3775,-101.347222
#1138921,-0.034201680672269,-0.03327067669172932,-2.73613445378152,-2.661654135338345,Decreasing,Decreasing,,988.16,High Plains aquifer,Texas,Briscoe County,34.38,-101.2833333
#1139201,-0.02485294117647037,-0.02674436090225562,-1.98823529411763,-2.139548872180449,Decreasing,Decreasing,,984.2,High Plains aquifer,Texas,Briscoe County,34.47,-101.1900778
#1139605,-0.1375000000000011,-0.1307543859649122,-11.00000000000009,-10.46035087719298,No trend,Decreasing,Different,977.19,High Plains aquifer,Texas,Briscoe County,34.457778,-101.155001
#1141108,-0.9174999999999986,-0.9278070175438592,-73.39999999999989,-74.22456140350873,Decreasing,Decreasing,,1094.23,High Plains aquifer,Texas,Castro County,34.36,-101.999445
#1141506,-0.8044444444444454,-0.8088596491228072,-64.35555555555564,-64.70877192982458,Decreasing,Decreasing,,1076.55,High Plains aquifer,Texas,Hale County,34.31,-101.929722
#1141602,-0.6154545454545451,-0.5980701754385964,-49.23636363636361,-47.84561403508771,Decreasing,Decreasing,,1066.5,High Plains aquifer,Texas,Hale County,34.3,-101.883055
#1142315,-0.03148367302213528,-0.03124129618863093,-2.518693841770823,-2.499303695090474,Decreasing,Decreasing,,1061.31,High Plains aquifer,Texas,Swisher County,34.354444,-101.758611
#1142704,-0.6207692307692313,-0.6241754385964912,-49.66153846153851,-49.93403508771929,Decreasing,Decreasing,,1061.01,High Plains aquifer,Texas,Hale County,34.27,-101.865556
#1144714,-0.2618181818181814,-0.2658204334365322,-20.94545454545451,-21.26563467492258,Decreasing,Decreasing,,1020.17,High Plains aquifer,Texas,Hale County,34.26,-101.608612
#1144904,-0.08999999999999868,-0.09143859649122789,-7.199999999999894,-7.315087719298231,Decreasing,Decreasing,,1012.55,High Plains aquifer,Texas,Floyd County,34.279444,-101.538889
#1145314,-0.09000000000000016,-0.09487969924812022,-7.200000000000014,-7.590375939849618,Decreasing,Decreasing,,1004.93,High Plains aquifer,Texas,Briscoe County,34.36,-101.3865472
#1145408,-0.04266666666666671,-0.03187719298245634,-3.413333333333337,-2.550175438596507,Decreasing,Decreasing,,1008.28,High Plains aquifer,Texas,Floyd County,34.303612,-101.4675
#1145905,-0.03000000000000035,-0.03087719298245629,-2.400000000000028,-2.470175438596503,Decreasing,Decreasing,,994.26,High Plains aquifer,Texas,Floyd County,34.259167,-101.412778
#1146101,-0.03750000000000031,-0.03896240601503772,-3.000000000000025,-3.116992481203018,Decreasing,Decreasing,,996.7,High Plains aquifer,Texas,Briscoe County,34.349167,-101.333611
#1146606,-0.1599999999999994,-0.1657378740970072,-12.79999999999995,-13.25902992776058,Decreasing,Decreasing,,974.75,High Plains aquifer,Texas,Floyd County,34.300001,-101.250278
#1146701,-0.08500000000000085,-0.08323013415892674,-6.800000000000068,-6.65841073271414,Decreasing,Decreasing,,995.17,High Plains aquifer,Texas,Floyd County,34.29,-101.364723
#1146802,-0.05166666666666705,-0.04857894736842099,-4.133333333333364,-3.88631578947368,Decreasing,Decreasing,,986.03,High Plains aquifer,Texas,Floyd County,34.290278,-101.293889
#1149101,-0.624545454545455,-0.6369865841073272,-49.9636363636364,-50.95892672858618,Decreasing,Decreasing,,1085.7,High Plains aquifer,Texas,Hale County,34.24,-101.987778
#1149404,-0.3499999999999943,-0.3527719298245613,-27.99999999999955,-28.22175438596491,Decreasing,Decreasing,,1082.04,High Plains aquifer,Texas,Hale County,34.2,-101.991111
#1149801,-0.5425000000000004,-0.5695149638802891,-43.40000000000003,-45.56119711042313,Decreasing,Decreasing,,1068.93,High Plains aquifer,Texas,Hale County,34.16,-101.952501
#1149904,-0.5749999999999993,-0.5958245614035089,-45.99999999999994,-47.66596491228071,Decreasing,Decreasing,,1057.66,High Plains aquifer,Texas,Hale County,34.159445,-101.895278
#1150203,-0.4078571428571424,-0.4136119711042314,-32.62857142857139,-33.08895768833851,Decreasing,Decreasing,,1047.6,High Plains aquifer,Texas,Hale County,34.25,-101.795278
#1150204,-0.4787500000000016,-0.4752631578947368,-38.30000000000013,-38.02105263157894,Decreasing,Decreasing,,1049.12,High Plains aquifer,Texas,Hale County,34.22,-101.828889
#1150605,-0.527272727272727,-0.5475438596491228,-42.18181818181816,-43.80350877192982,Decreasing,Decreasing,,1035.41,High Plains aquifer,Texas,Hale County,34.18,-101.767778
#1150703,-0.7960000000000008,-0.8180495356037155,-63.68000000000006,-65.44396284829725,Decreasing,Decreasing,,1055.22,High Plains aquifer,Texas,Hale County,34.151667,-101.852778
#1150906,-0.3324999999999996,-0.3414241486068113,-26.59999999999997,-27.3139318885449,Decreasing,Decreasing,,1043.03,High Plains aquifer,Texas,Hale County,34.156667,-101.781111
#1151102,-0.4084615384615387,-0.4069143446852427,-32.67692307692309,-32.55314757481942,Decreasing,Decreasing,,1036.02,High Plains aquifer,Texas,Hale County,34.24,-101.737778
#1151403,-0.1290740740740735,-0.1232242124166728,-10.32592592592588,-9.857936993333823,Decreasing,Decreasing,,1032.36,High Plains aquifer,Texas,Hale County,34.192221,-101.727221
#1151703,-0.3515384615384616,-0.3584623323013416,-28.12307692307693,-28.67698658410733,Decreasing,Decreasing,,1030.83,High Plains aquifer,Texas,Hale County,34.14,-101.739722
#1152305,-0.1125000000000007,-0.1085087719298246,-9.000000000000057,-8.680701754385971,Decreasing,Decreasing,,1009.8,High Plains aquifer,Texas,Floyd County,34.228889,-101.525833
#1153205,-0.06333333333333352,-0.05575438596491252,-5.066666666666682,-4.460350877193002,Decreasing,Decreasing,,999.44,High Plains aquifer,Texas,Floyd County,34.236945,-101.441945
#1153503,-0.2730000000000004,-0.2696315789473684,-21.84000000000003,-21.57052631578948,Decreasing,Decreasing,,1002.18,High Plains aquifer,Texas,Floyd County,34.197222,-101.441667
#1153802,-0.01928571428571451,-0.0108947368421053,-1.542857142857161,-0.8715789473684241,Decreasing,No trend,Different,998.52,High Plains aquifer,Texas,Floyd County,34.149445,-101.421389
#1153904,-0.05625000000000036,-0.06487100103199166,-4.500000000000028,-5.189680082559333,Decreasing,Decreasing,,993.95,High Plains aquifer,Texas,Floyd County,34.156667,-101.3875
#1154101,-0.05375000000000085,-0.05842105263157877,-4.300000000000068,-4.673684210526302,Decreasing,Decreasing,,986.33,High Plains aquifer,Texas,Floyd County,34.228333,-101.345
#1154402,-0.05083333333333329,-0.04848297213622294,-4.066666666666663,-3.878637770897835,Decreasing,Decreasing,,992.73,High Plains aquifer,Texas,Floyd County,34.191111,-101.359723
#1154601,-0.06083333333333248,-0.06420020639834889,-4.866666666666599,-5.136016511867911,Decreasing,Decreasing,,978.1,High Plains aquifer,Texas,Floyd County,34.186111,-101.289445
#1155501,-0.06062499999999993,-0.06029824561403521,-4.849999999999994,-4.823859649122817,Decreasing,Decreasing,,970.48,High Plains aquifer,Texas,Floyd County,34.1825,-101.205001
#1155901,-0.05411764705882363,-0.05559649122807012,-4.32941176470589,-4.447719298245609,Decreasing,Decreasing,,965.3,High Plains aquifer,Texas,Floyd County,34.158334,-101.159445
#1157202,-0.418235294117647,-0.4253684210526313,-33.45882352941176,-34.02947368421051,Decreasing,Decreasing,,1062.23,High Plains aquifer,Texas,Hale County,34.108056,-101.945834
#1157401,-0.7292307692307685,-0.7176315789473684,-58.33846153846147,-57.41052631578947,Decreasing,Decreasing,,1062.84,High Plains aquifer,Texas,Hale County,34.065001,-101.97
#1157702,-0.7130769230769238,-0.7310526315789475,-57.04615384615391,-58.4842105263158,Decreasing,Decreasing,,1058.57,High Plains aquifer,Texas,Hale County,34.028611,-101.985556
#1157901,-0.6933333333333328,-0.6920330237358102,-55.46666666666663,-55.36264189886482,Decreasing,Decreasing,,1047.9,High Plains aquifer,Texas,Hale County,34.03,-101.905556
#1158103,-0.5949999999999999,-0.6068947368421054,-47.59999999999999,-48.55157894736843,Decreasing,Decreasing,,1047.9,High Plains aquifer,Texas,Hale County,34.11,-101.853056
#1158205,-0.74,-0.7620433436532504,-59.2,-60.96346749226004,Decreasing,Decreasing,,1038.45,High Plains aquifer,Texas,Hale County,34.109167,-101.796667
#1158801,-0.3183333333333334,-0.3336842105263156,-25.46666666666667,-26.69473684210525,Decreasing,Decreasing,,1034.49,High Plains aquifer,Texas,Hale County,34.03,-101.817222
#1158901,0.001176470588235269,0.008368421052631572,0.09411764705882153,0.6694736842105258,No trend,No trend,,1017.73,High Plains aquifer,Texas,Hale County,34.01,-101.757501
#1159202,-0.721428571428571,-0.7271620227038186,-57.71428571428568,-58.17296181630549,Decreasing,Decreasing,,1018.64,High Plains aquifer,Texas,Hale County,34.118889,-101.676111
#1159405,0.04999999999999893,0.100485036119711,3.999999999999915,8.038802889576882,No trend,Increasing,Different,1017.73,High Plains aquifer,Texas,Hale County,34.042778,-101.748611
#1159503,0.07666666666666681,0.08641898864809092,6.133333333333345,6.913519091847274,Increasing,Increasing,,1013.16,High Plains aquifer,Texas,Hale County,34.05,-101.682778
#1159806,0.01499999999999998,0.02456140350877187,1.199999999999998,1.96491228070175,No trend,No trend,,1009.5,High Plains aquifer,Texas,Hale County,34.021111,-101.69
#1160204,-0.6614285714285708,-0.669714285714286,-52.91428571428567,-53.57714285714288,Decreasing,Decreasing,,1003.71,High Plains aquifer,Texas,Hale County,34.0925,-101.578055
#1160302,-0.8646666666666676,-0.903438596491228,-69.1733333333334,-72.27508771929824,Decreasing,Decreasing,,1003.4,High Plains aquifer,Texas,Floyd County,34.1155556,-101.5261111
#1160502,-0.4065384615384618,-0.4093909774436091,-32.52307692307695,-32.75127819548873,Decreasing,Decreasing,,998.52,High Plains aquifer,Texas,Floyd County,34.058612,-101.559445
#1160605,-0.6011538461538457,-0.6408796992481202,-48.09230769230766,-51.27037593984961,Decreasing,Decreasing,,995.17,High Plains aquifer,Texas,Floyd County,34.05,-101.525833
#1160803,-0.08500000000000085,-0.08438596491228072,-6.800000000000068,-6.750877192982458,Decreasing,Decreasing,,997.92,High Plains aquifer,Texas,Hale County,34.016944,-101.582222
#1160804,-0.4412215909090908,-0.4497067669172929,-35.29772727272726,-35.97654135338343,Decreasing,Decreasing,,993.95,High Plains aquifer,Texas,Floyd County,34.005278,-101.550278
#1160902,-0.7325000000000004,-0.7861954887218048,-58.60000000000003,-62.89563909774438,Decreasing,Decreasing,,988.77,High Plains aquifer,Texas,Floyd County,34.026111,-101.508056
#1161605,-0.1609999999999999,-0.1740751879699248,-12.88,-13.92601503759398,Decreasing,Decreasing,,990.6,High Plains aquifer,Texas,Floyd County,34.079444,-101.392778
#1162201,0.02656862745097998,0.02697744360902246,2.125490196078399,2.158195488721796,Increasing,Increasing,,968.04,High Plains aquifer,Texas,Floyd County,34.102223,-101.309167
#1162301,0.02499999999999976,0.0250877192982457,1.999999999999981,2.007017543859656,Increasing,Increasing,,965.61,High Plains aquifer,Texas,Floyd County,34.107501,-101.256667
#1162401,0.01384615384615382,0.0187017543859649,1.107692307692306,1.496140350877192,No trend,No trend,,989.69,High Plains aquifer,Texas,Floyd County,34.0811111,-101.3711111
#1162601,0.05257575757575773,0.05518045112781955,4.206060606060618,4.414436090225564,Increasing,Increasing,,961.34,High Plains aquifer,Texas,Floyd County,34.068889,-101.256389
#1162702,-0.09583333333333321,-0.1037368421052631,-7.666666666666657,-8.298947368421047,Decreasing,Decreasing,,976.58,High Plains aquifer,Texas,Floyd County,34.037778,-101.350278
#1162801,-0.1610555555555555,-0.1945789473684211,-12.88444444444444,-15.56631578947369,No trend,Decreasing,Different,968.96,High Plains aquifer,Texas,Floyd County,34.024722,-101.325
#1163401,0.0250000000000001,0.02985964912280704,2.000000000000008,2.388771929824563,Increasing,Increasing,,956.46,High Plains aquifer,Texas,Floyd County,34.055278,-101.220833
#1163502,0.0008391608391606225,0.0005864661654132997,0.0671328671328498,0.04691729323306398,No trend,No trend,,954.94,High Plains aquifer,Texas,Floyd County,34.071111,-101.171111
#1163601,-0.0074999999999991,-0.004245614035087922,-0.599999999999928,-0.3396491228070337,No trend,No trend,,950.06,High Plains aquifer,Texas,Floyd County,34.074167,-101.125278
#1163801,0.02999999999999985,0.02607017543859664,2.399999999999988,2.085614035087731,Increasing,Increasing,,955.24,High Plains aquifer,Texas,Floyd County,34.022222,-101.202501
#1164701,-0.01733333333333368,-0.007110423116614892,-1.386666666666694,-0.5688338493291913,No trend,No trend,,943.05,High Plains aquifer,Texas,Floyd County,34.0311111,-101.0872222
#2301401,-1.087,-1.095140350877194,-86.96000000000004,-87.61122807017549,Decreasing,Decreasing,,1049.12,High Plains aquifer,Texas,Hale County,33.929722,-101.969722
#2301704,-0.3876923076923071,-0.3954385964912279,-31.01538461538457,-31.63508771929823,Decreasing,Decreasing,,1052.47,High Plains aquifer,Texas,Hale County,33.913889,-101.995
#2301802,-0.8987499999999997,-0.9507017543859646,-71.89999999999998,-76.05614035087717,Decreasing,Decreasing,,1043.33,High Plains aquifer,Texas,Hale County,33.92,-101.940556
#2301901,-0.02999999999999985,-0.01699999999999992,-2.399999999999988,-1.359999999999993,No trend,No trend,,1029.0,High Plains aquifer,Texas,Hale County,33.88,-101.888611
#2302104,-0.6922649572649575,-0.6932330827067672,-55.3811965811966,-55.45864661654137,Decreasing,Decreasing,,1041.2,High Plains aquifer,Texas,Hale County,33.98,-101.853056
#2302302,-0.00333333333333267,0.007122807017543738,-0.2666666666666136,0.569824561403499,No trend,No trend,,1018.64,High Plains aquifer,Texas,Hale County,33.96,-101.780278
#2302411,-1.238461538461539,-1.286305469556243,-99.07692307692314,-102.9044375644995,Decreasing,Decreasing,,1035.41,High Plains aquifer,Texas,Hale County,33.931389,-101.853056
#2302501,-1.4,-1.411991744066047,-112.0,-112.9593395252838,Decreasing,Decreasing,,1024.74,High Plains aquifer,Texas,Hale County,33.93,-101.809723
#2302703,-0.04833333333333319,-0.04991228070175432,-3.866666666666656,-3.992982456140346,Decreasing,Decreasing,,1023.52,High Plains aquifer,Texas,Hale County,33.875833,-101.846389
#2302801,-0.05374999999999996,-0.03985964912280704,-4.299999999999997,-3.188771929824563,Decreasing,Decreasing,,1022.91,High Plains aquifer,Texas,Hale County,33.88,-101.796667
#2302901,-1.565,-1.592528379772962,-125.2,-127.402270381837,Decreasing,Decreasing,,1016.51,High Plains aquifer,Texas,Hale County,33.91,-101.765834
#2303103,0.01444444444444394,0.03684210526315778,1.155555555555515,2.947368421052623,Increasing,Increasing,,1016.81,High Plains aquifer,Texas,Hale County,33.98,-101.720833
#2303201,-0.1699999999999993,-0.1719649122807017,-13.59999999999995,-13.75719298245614,Decreasing,Decreasing,,1011.02,High Plains aquifer,Texas,Hale County,33.98,-101.676944
#2303304,-0.09666666666666639,-0.09571929824561401,-7.733333333333311,-7.65754385964912,Decreasing,Decreasing,,1006.14,High Plains aquifer,Texas,Hale County,33.969444,-101.635556
#2303702,-0.1739999999999995,-0.1759298245614035,-13.91999999999996,-14.07438596491228,Decreasing,Decreasing,,1009.5,High Plains aquifer,Texas,Hale County,33.906667,-101.731389
#2303802,-1.051250000000001,-1.051,-84.10000000000011,-84.08000000000001,Decreasing,Decreasing,,1003.4,High Plains aquifer,Texas,Hale County,33.879167,-101.700278
#2303903,-0.1119090909090913,-0.1132406015037594,-8.952727272727305,-9.05924812030075,Decreasing,Decreasing,,1000.05,High Plains aquifer,Texas,Hale County,33.898334,-101.660278
#2304106,-0.04750000000000298,-0.03771929824561393,-3.800000000000239,-3.017543859649114,Decreasing,Decreasing,,1000.96,High Plains aquifer,Texas,Hale County,33.963056,-101.591945
#2304405,-0.1400000000000006,-0.1349824561403508,-11.20000000000005,-10.79859649122807,Decreasing,Decreasing,,998.22,High Plains aquifer,Texas,Hale County,33.934445,-101.623333
#2304602,-0.6547727272727268,-0.6608496240601507,-52.38181818181815,-52.86796992481206,Decreasing,Decreasing,,986.33,High Plains aquifer,Texas,Floyd County,33.940556,-101.531111
#2304701,-0.1866666666666662,-0.1843508771929824,-14.9333333333333,-14.7480701754386,Decreasing,Decreasing,,991.51,High Plains aquifer,Texas,Hale County,33.886111,-101.606667
#2304802,-0.9017647058823528,-0.9261052631578948,-72.14117647058822,-74.08842105263159,Decreasing,Decreasing,,984.81,High Plains aquifer,Texas,Floyd County,33.900278,-101.548334
#2305202,-0.4300000000000002,-0.430263157894737,-34.40000000000001,-34.42105263157896,Decreasing,Decreasing,,977.49,High Plains aquifer,Texas,Floyd County,33.977222,-101.444445
#2305602,-0.3421428571428576,-0.3599649122807014,-27.37142857142861,-28.79719298245611,Decreasing,Decreasing,,970.18,High Plains aquifer,Texas,Floyd County,33.952778,-101.376667
#2305701,-0.6899999999999977,-0.6947368421052631,-55.19999999999982,-55.57894736842105,Decreasing,Decreasing,,977.8,High Plains aquifer,Texas,Floyd County,33.910278,-101.4875
#2305803,-0.5125000000000002,-0.5397192982456143,-41.00000000000001,-43.17754385964914,Decreasing,Decreasing,,970.18,High Plains aquifer,Texas,Floyd County,33.891667,-101.428333
#2306113,0.00416666666666643,0.007456140350877143,0.3333333333333144,0.5964912280701715,No trend,No trend,,970.79,High Plains aquifer,Texas,Floyd County,33.993056,-101.342222
#2306303,0.01142857142857119,0.004666666666666697,0.9142857142856948,0.3733333333333358,No trend,No trend,,960.42,High Plains aquifer,Texas,Floyd County,33.992778,-101.273333
#2306503,-0.1334848484848494,-0.1374210526315789,-10.67878787878795,-10.99368421052631,Decreasing,Decreasing,,963.17,High Plains aquifer,Texas,Floyd County,33.948611,-101.314167
#2306601,-0.2299999999999969,-0.2443653250773994,-18.39999999999975,-19.54922600619195,Decreasing,Decreasing,,956.77,High Plains aquifer,Texas,Floyd County,33.934445,-101.271667
#2306704,-0.6085714285714293,-0.6550773993808054,-48.68571428571435,-52.40619195046443,Decreasing,Decreasing,,960.73,High Plains aquifer,Texas,Floyd County,33.905001,-101.351945
#2307404,-0.1128571428571427,-0.1133157894736844,-9.02857142857142,-9.065263157894751,Decreasing,Decreasing,,951.59,High Plains aquifer,Texas,Floyd County,33.928889,-101.230555
#2307501,-0.09461538461538492,-0.09294117647058812,-7.569230769230794,-7.43529411764705,Decreasing,Decreasing,,945.18,High Plains aquifer,Texas,Floyd County,33.931111,-101.173333
#2307702,-0.0990909090909081,-0.1001651186790505,-7.927272727272649,-8.013209494324041,Decreasing,Decreasing,,950.37,High Plains aquifer,Texas,Floyd County,33.888889,-101.246667
#2307901,-0.2074999999999996,-0.2095438596491227,-16.59999999999997,-16.76350877192982,Decreasing,Decreasing,,940.92,High Plains aquifer,Texas,Floyd County,33.898611,-101.159723
#2308201,-0.03381818181818219,-0.03180451127819549,-2.705454545454575,-2.544360902255639,Decreasing,Decreasing,,940.61,High Plains aquifer,Texas,Floyd County,33.973611,-101.059167
#2308401,-0.08619047619047529,-0.09618796992481209,-6.895238095238023,-7.695037593984967,Decreasing,Decreasing,,941.22,High Plains aquifer,Texas,Floyd County,33.950556,-101.115556
#2308503,-0.1500000000000057,-0.1568245614035087,-12.00000000000045,-12.54596491228069,Decreasing,Decreasing,,936.35,High Plains aquifer,Texas,Floyd County,33.934445,-101.064167
#2308701,-0.1580357142857137,-0.1583082706766919,-12.64285714285709,-12.66466165413535,Decreasing,Decreasing,,937.26,High Plains aquifer,Texas,Floyd County,33.906112,-101.114167
#2309201,-0.03000000000000012,-0.02607017543859666,-2.40000000000001,-2.085614035087733,Decreasing,Decreasing,,1010.11,High Plains aquifer,Texas,Hale County,33.839167,-101.920833
#2311103,-0.1827272727272732,-0.1760350877192984,-14.61818181818185,-14.08280701754387,Decreasing,Decreasing,,1007.67,High Plains aquifer,Texas,Hale County,33.84,-101.726111
#2311601,-0.1486666666666669,-0.1507223942208462,-11.89333333333335,-12.0577915376677,Decreasing,Decreasing,,993.65,High Plains aquifer,Texas,Lubbock County,33.798611,-101.636111
#2311801,-0.1600000000000108,-0.1605263157894738,-12.80000000000086,-12.8421052631579,Decreasing,Decreasing,,995.17,High Plains aquifer,Texas,Lubbock County,33.77,-101.705834
#2312102,-0.6450000000000001,-0.660660474716202,-51.60000000000001,-52.85283797729616,Decreasing,Decreasing,,991.21,High Plains aquifer,Texas,Hale County,33.86,-101.595278
#2312402,-0.8521428571428566,-0.8532631578947371,-68.17142857142854,-68.26105263157896,Decreasing,Decreasing,,987.86,High Plains aquifer,Texas,Lubbock County,33.825278,-101.594722
#2312801,-0.8668750000000003,-0.87940350877193,-69.35000000000002,-70.3522807017544,Decreasing,Decreasing,,975.97,High Plains aquifer,Texas,Crosby County,33.761389,-101.560278
#2312803,-0.6190909090909092,-0.6354282765737878,-49.52727272727274,-50.83426212590302,Decreasing,Decreasing,,975.66,High Plains aquifer,Texas,Lubbock County,33.751112,-101.565001
#2313302,-0.4881818181818186,-0.4798348813209495,-39.05454545454549,-38.38679050567596,Decreasing,Decreasing,,967.74,High Plains aquifer,Texas,Floyd County,33.868333,-101.406945
#2313303,-0.1899999999999991,-0.1895149638802889,-15.19999999999993,-15.16119711042311,Decreasing,Decreasing,,957.99,High Plains aquifer,Texas,Floyd County,33.836389,-101.3875
#2315204,-0.08265151515151416,-0.09539849624060158,-6.612121212121132,-7.631879699248127,No trend,Decreasing,Different,937.87,High Plains aquifer,Texas,Floyd County,33.860834,-101.168611
#2316101,-0.09102380952380906,-0.09880451127819548,-7.281904761904725,-7.904360902255638,Decreasing,Decreasing,,933.91,High Plains aquifer,Texas,Floyd County,33.861112,-101.116389
#2319304,-0.4264285714285713,-0.43781217750258,-34.11428571428571,-35.0249742002064,Decreasing,Decreasing,,987.86,High Plains aquifer,Texas,Lubbock County,33.7366667,-101.6538889
#2319601,-0.3120000000000004,-0.3166666666666667,-24.96000000000004,-25.33333333333334,Decreasing,Decreasing,,975.97,High Plains aquifer,Texas,Lubbock County,33.677222,-101.639445
#2321101,-0.3354545454545452,-0.36875128998968,-26.83636363636362,-29.5001031991744,Decreasing,Decreasing,,963.17,High Plains aquifer,Texas,Crosby County,33.721111,-101.4825
#2321903,-0.3239999999999995,-0.3472652218782249,-25.91999999999996,-27.78121775025799,Decreasing,Decreasing,,949.15,High Plains aquifer,Texas,Crosby County,33.660125,-101.403025
#2324203,0.004999999999999893,-0.00203508771929824,0.3999999999999915,-0.1628070175438592,No trend,No trend,,914.4,High Plains aquifer,Texas,Crosby County,33.739445,-101.043889
#2328602,-0.3525,-0.3676160990712075,-28.2,-29.4092879256966,Decreasing,Decreasing,,942.44,High Plains aquifer,Texas,Crosby County,33.553612,-101.531389
#2329201,-0.3127272727272725,-0.3165221878224975,-25.0181818181818,-25.3217750257998,Decreasing,Decreasing,,942.75,High Plains aquifer,Texas,Crosby County,33.59,-101.435278
#2330103,-0.03020232589048399,-0.03150228851438536,-2.416186071238719,-2.520183081150829,Decreasing,Decreasing,,930.25,High Plains aquifer,Texas,Crosby County,33.587777,-101.341666
#2335503,-0.5009090909090907,-0.48659649122807,-40.07272727272726,-38.9277192982456,Decreasing,Decreasing,,950.67,High Plains aquifer,Texas,Lubbock County,33.424722,-101.701945
#2335707,-0.4599999999999999,-0.4685448916408668,-36.79999999999999,-37.48359133126934,Decreasing,Decreasing,,952.8,High Plains aquifer,Texas,Lubbock County,33.399722,-101.723333
#2350506,0.008000000000000007,0.03652218782249741,0.6400000000000006,2.921775025799793,No trend,Increasing,Different,947.93,High Plains aquifer,Texas,Lynn County,33.1925,-101.806667
#2408301,-0.711875,-0.7217543859649125,-56.95,-57.74035087719299,Decreasing,Decreasing,,1054.91,High Plains aquifer,Texas,Hale County,33.99,-102.014723
#2408402,-0.1742857142857141,-0.1830030959752323,-13.94285714285713,-14.64024767801859,Decreasing,Decreasing,,1068.93,High Plains aquifer,Texas,Lamb County,33.9533333,-102.1011111
#2408501,-0.3566666666666667,-0.3473508771929825,-28.53333333333334,-27.7880701754386,Decreasing,Decreasing,,1058.27,High Plains aquifer,Texas,Hale County,33.943056,-102.054445
#2408602,-0.8791666666666661,-0.886812030075188,-70.33333333333329,-70.94496240601504,Decreasing,Decreasing,,1055.22,High Plains aquifer,Texas,Hale County,33.94,-102.010556
#2408902,-0.2633333333333335,-0.2776140350877194,-21.06666666666668,-22.20912280701755,Decreasing,Decreasing,,1041.81,High Plains aquifer,Texas,Hale County,33.89,-102.013056
#2415701,-0.162,-0.1726109391124872,-12.96,-13.80887512899897,Decreasing,Decreasing,,1036.62,High Plains aquifer,Texas,Hockley County,33.778055,-102.212778
#2416208,-0.01500000000000057,-0.01496491228070187,-1.200000000000045,-1.19719298245615,Decreasing,No trend,Different,1047.6,High Plains aquifer,Texas,Hale County,33.838889,-102.08
#2416311,-0.01899999999999977,-0.01854385964912265,-1.519999999999982,-1.483508771929812,Decreasing,No trend,Different,1039.67,High Plains aquifer,Texas,Hale County,33.84,-102.001667
#2428103,-0.5714285714285714,-0.5598142414860682,-45.71428571428571,-44.78513931888546,Decreasing,Decreasing,,1114.96,High Plains aquifer,Texas,Hockley County,33.604723,-102.601112
#2430409,-0.3172727272727268,-0.3395149638802888,-25.38181818181815,-27.1611971104231,Decreasing,Decreasing,,1066.8,High Plains aquifer,Texas,Hockley County,33.57,-102.358056
#2444201,-0.02700000000000031,-0.03108359133126944,-2.160000000000025,-2.486687306501556,Decreasing,Decreasing,,1088.75,High Plains aquifer,Texas,Terry County,33.365001,-102.568333
#2444202,-0.04666666666666567,-0.05515995872033014,-3.733333333333253,-4.412796697626411,Decreasing,Decreasing,,1076.86,High Plains aquifer,Texas,Terry County,33.359445,-102.545
#2444301,-0.01800000000000068,-0.01831785345717255,-1.440000000000055,-1.465428276573804,No trend,No trend,,1078.08,High Plains aquifer,Texas,Terry County,33.358334,-102.521111
#2444601,-0.02285714285714288,-0.02395252837977305,-1.82857142857143,-1.916202270381844,Decreasing,No trend,Different,1068.63,High Plains aquifer,Texas,Terry County,33.323055,-102.518611
#2445301,-0.004545454545454287,-0.004489164086687242,-0.3636363636363429,-0.3591331269349793,No trend,No trend,,1053.69,High Plains aquifer,Texas,Terry County,33.336945,-102.410278
#2462601,-0.2011764705882371,-0.2220758634632678,-16.09411764705897,-17.76606907706143,Decreasing,Decreasing,,1000.66,High Plains aquifer,Texas,Terry County,33.066111,-102.29111
#248901,-0.6066666666666644,-0.5118679050567598,-48.53333333333315,-40.94943240454079,Decreasing,Decreasing,,1107.03,High Plains aquifer,Texas,Sherman County,36.284722,-102.016944
#255301,-1.075999999999999,-1.074736842105263,-86.07999999999993,-85.97894736842106,Decreasing,Decreasing,,1134.47,High Plains aquifer,Texas,Sherman County,36.241389,-102.133055
#256709,-0.8399999999999999,-0.7818472652218782,-67.19999999999999,-62.54778121775026,Decreasing,Decreasing,,1124.71,High Plains aquifer,Texas,Sherman County,36.139445,-102.097222
#2739903,-0.05821350762527237,-0.06042063359842293,-4.65708061002179,-4.833650687873835,Decreasing,Decreasing,,883.92,High Plains aquifer,Texas,Martin County,32.386666,-102.147777
#2764602,-0.1585714285714286,-0.2558307533539732,-12.68571428571429,-20.46646026831786,Decreasing,Decreasing,,850.7,High Plains aquifer,Texas,Midland County,32.0545528,-102.0394444
#2764901,0.07533333333333339,0.06446852425180595,6.026666666666671,5.157481940144476,No trend,Increasing,Different,848.26,High Plains aquifer,Texas,Midland County,32.0313556,-102.0040556
#2825604,0.03437335114101035,0.03647532254357683,2.749868091280828,2.918025803486147,Increasing,Increasing,,870.2,High Plains aquifer,Texas,Dawson County,32.574999,-101.881388
#2835508,0.08,0.07462332301341588,6.4,5.969865841073271,Increasing,Increasing,,797.05,High Plains aquifer,Texas,Howard County,32.421111,-101.689445
#2835602,-0.01999999999999987,-0.02277605779153766,-1.599999999999989,-1.822084623323013,No trend,No trend,,815.34,High Plains aquifer,Texas,Howard County,32.434167,-101.630278
#2835911,0.07600000000000007,0.06579979360165121,6.080000000000005,5.263983488132097,Increasing,Increasing,,794.61,High Plains aquifer,Texas,Howard County,32.4027778,-101.6436111
#2836601,0.01857142857142894,0.0159855521155832,1.485714285714315,1.278844169246656,No trend,No trend,,824.79,High Plains aquifer,Texas,Howard County,32.421944,-101.541945
#2837503,-0.1499999999999996,-0.1771723426212589,-11.99999999999997,-14.17378740970071,Decreasing,Decreasing,,819.0,High Plains aquifer,Texas,Howard County,32.448056,-101.452501
#2851902,0.06000000000000005,0.002649122807017539,4.800000000000004,0.2119298245614031,No trend,No trend,,761.09,High Plains aquifer,Texas,Howard County,32.13,-101.647778
#2858903,-0.1726666666666668,-0.1796181630546956,-13.81333333333334,-14.36945304437565,Decreasing,Decreasing,,801.01,High Plains aquifer,Texas,Midland County,32.0052944,-101.78195
#2859301,-0.5020000000000001,-0.5220743034055727,-40.16000000000001,-41.76594427244581,Decreasing,Decreasing,,767.79,High Plains aquifer,Texas,Howard County,32.0883333,-101.6355556
#341010102240801,-0.1326890235260769,-0.1390675867864172,-10.61512188208616,-11.12540694291338,Decreasing,Decreasing,,1117.4,High Plains aquifer,Texas,Lamb County,34.1695,-102.4040556
#344302,-0.389999999999999,-0.4109184726522185,-31.19999999999992,-32.87347781217748,Decreasing,Decreasing,,989.08,High Plains aquifer,Texas,Hansford County,36.365556,-101.513612
#344801,-0.2112499999999997,-0.1869143446852425,-16.89999999999998,-14.9531475748194,Decreasing,Decreasing,,1013.76,High Plains aquifer,Texas,Hansford County,36.251945,-101.568611
#345801,-0.4791666666666667,-0.5408359133126934,-38.33333333333334,-43.26687306501547,Decreasing,Decreasing,,979.02,High Plains aquifer,Texas,Hansford County,36.284167,-101.451945
#348202,-0.02333333333333343,-0.0065841073271411,-1.866666666666674,-0.526728586171288,No trend,No trend,,915.92,High Plains aquifer,Texas,Ochiltree County,36.360001,-101.051389
#352301,-0.07600000000000004,-0.04807017543859656,-6.080000000000004,-3.845614035087725,No trend,Decreasing,Different,997.31,High Plains aquifer,Texas,Hansford County,36.245278,-101.514723
#353901,-0.03499999999999659,-0.03033333333333334,-2.799999999999727,-2.426666666666667,No trend,Decreasing,Different,982.68,High Plains aquifer,Texas,Hansford County,36.125555,-101.396667
#354301,-0.07605989752652141,-0.0759831553454624,-6.084791802121713,-6.078652427636992,Decreasing,Decreasing,,902.82,High Plains aquifer,Texas,Hansford County,36.243333,-101.262222
#359809,-0.7090909090909089,-0.6980526315789474,-56.72727272727271,-55.84421052631579,Decreasing,Decreasing,,1040.59,High Plains aquifer,Texas,Moore County,36.041389,-101.688889
#362801,-0.0528571428571435,-0.05303508771929837,-4.22857142857148,-4.242807017543869,Decreasing,Decreasing,,980.54,High Plains aquifer,Texas,Hutchinson County,36.0375,-101.301389
#435201,-0.02800000000000012,-0.02898864809081536,-2.240000000000009,-2.319091847265229,Decreasing,Decreasing,,884.83,High Plains aquifer,Texas,Ochiltree County,36.4925,-100.684722
#436204,0.07090909090909102,0.05971104231166115,5.672727272727282,4.776883384932892,Increasing,Increasing,,864.41,High Plains aquifer,Texas,Ochiltree County,36.470833,-100.569444
#4402410,-0.09399999999999994,-0.09197110423116615,-7.519999999999996,-7.357688338493293,Decreasing,Decreasing,,807.72,High Plains aquifer,Texas,Midland County,31.953056,-101.848889
#445901,0.05299999999999976,0.06259029927760582,4.239999999999981,5.007223942208466,No trend,Increasing,Different,793.39,High Plains aquifer,Texas,Lipscomb County,36.288611,-100.384722
#450502,-0.2092857142857148,-0.2084623323013418,-16.74285714285718,-16.67698658410734,Decreasing,Decreasing,,907.69,High Plains aquifer,Texas,Ochiltree County,36.1675,-100.820833
#4507421,-0.05499999999999972,-0.05605263157894737,-4.399999999999977,-4.484210526315789,No trend,Decreasing,Different,874.47,High Plains aquifer,Texas,Midland County,31.920278,-102.223333
#452101,-0.175,-0.1753766769865841,-14.0,-14.03013415892673,Decreasing,Decreasing,,794.31,High Plains aquifer,Texas,Ochiltree County,36.220278,-100.605834
#509553,-0.1465670381627829,-0.1458896649356118,-11.72536305302263,-11.67117319484895,Decreasing,Decreasing,,897.03,High Plains aquifer,Texas,Roberts County,35.82,-100.9283333
#517203,-0.06283694192281153,-0.06281272019987662,-5.026955353824922,-5.025017615990129,Decreasing,Decreasing,,944.88,High Plains aquifer,Texas,Roberts County,35.72,-100.935
#523101,0.01199999999999974,0.01321981424148603,0.9599999999999795,1.057585139318883,No trend,No trend,,759.56,High Plains aquifer,Texas,Hemphill County,35.73,-100.249445
#523202,-0.002000000000000076,-0.00588235294117651,-0.1600000000000061,-0.4705882352941209,No trend,No trend,,762.61,High Plains aquifer,Texas,Hemphill County,35.709167,-100.199167
#526501,-0.1379757085020248,-0.1351242470337408,-11.03805668016198,-10.80993976269926,Decreasing,Decreasing,,965.61,High Plains aquifer,Texas,Gray County,35.570554,-100.829999
#601603,-0.5261111111111111,-0.535140350877193,-42.08888888888889,-42.81122807017545,Decreasing,Decreasing,,1086.31,High Plains aquifer,Texas,Moore County,35.923333,-101.891667
#602903,-0.4223076923076919,-0.4336666666666667,-33.78461538461536,-34.69333333333334,Decreasing,Decreasing,,1056.44,High Plains aquifer,Texas,Moore County,35.905834,-101.757778
#610102,-0.262307692307692,-0.2728421052631577,-20.98461538461536,-21.82736842105261,Decreasing,Decreasing,,1089.66,High Plains aquifer,Texas,Moore County,35.868889,-101.856667
#611204,-0.2006249999999996,-0.225701754385965,-16.04999999999997,-18.0561403508772,Decreasing,Decreasing,,1042.42,High Plains aquifer,Texas,Moore County,35.866944,-101.700556
#616702,-0.2022916666666674,-0.1980656418814696,-16.18333333333339,-15.84525135051757,Decreasing,Decreasing,,909.83,High Plains aquifer,Texas,Hutchinson County,35.78,-101.0919444
#623503,-0.08538461538461534,-0.08068111455108351,-6.830769230769227,-6.454489164086681,Decreasing,Decreasing,,924.15,High Plains aquifer,Texas,Hutchinson County,35.682778,-101.188056
#705613,-0.6791666666666671,-0.6923859649122812,-54.33333333333337,-55.3908771929825,Decreasing,Decreasing,,1196.34,High Plains aquifer,Texas,Hartley County,35.924444,-102.388611
#712401,-0.1228786277026856,-0.1226926188624786,-9.830290216214852,-9.815409508998288,Decreasing,Decreasing,,1182.62,High Plains aquifer,Texas,Hartley County,35.805833,-102.613611
#713601,-1.150000000000002,-1.152703818369453,-92.00000000000014,-92.21630546955625,Decreasing,Decreasing,,1177.14,High Plains aquifer,Texas,Hartley County,35.825,-102.416389
#715502,-0.4359999999999985,-0.4293085655314758,-34.87999999999988,-34.34468524251806,Decreasing,Decreasing,,1162.2,High Plains aquifer,Texas,Hartley County,35.808612,-102.168611
#716903,-0.1625000000000014,-0.1564602683178539,-13.00000000000011,-12.51682146542831,Decreasing,Decreasing,,1128.37,High Plains aquifer,Texas,Moore County,35.755001,-102.036389
#746801,-0.0008333333333337597,-0.02335397316821474,-0.06666666666670078,-1.868317853457179,No trend,No trend,,1224.08,High Plains aquifer,Texas,Oldham County,35.27,-102.3261111
#750701,-0.04777777777777775,-0.05295149638802885,-3.82222222222222,-4.236119711042308,Decreasing,Decreasing,,1290.22,High Plains aquifer,Texas,Deaf Smith County,35.13,-102.8369444
#752101,0.02749999999999986,0.02280701754385951,2.199999999999989,1.824561403508761,No trend,No trend,,1255.17,High Plains aquifer,Texas,Oldham County,35.21,-102.6088889
#752301,-0.01800000000000068,0.01503508771929826,-1.440000000000055,1.202807017543861,No trend,No trend,,1253.34,High Plains aquifer,Texas,Oldham County,35.2255556,-102.5277778
#752502,-0.03250000000000064,-0.09719298245614054,-2.600000000000051,-7.775438596491243,No trend,Decreasing,Different,1250.59,High Plains aquifer,Texas,Deaf Smith County,35.1672222,-102.5588889
#752616,-0.01923076923076923,0.008885448916408287,-1.538461538461539,0.7108359133126629,No trend,No trend,,1248.77,High Plains aquifer,Texas,Deaf Smith County,35.17,-102.5361111
#753227,-0.07428571428571372,-0.1396491228070176,-5.942857142857098,-11.17192982456141,Decreasing,Decreasing,,1232.0,High Plains aquifer,Texas,Oldham County,35.240556,-102.450278
#754404,-0.09999999999999432,-0.09715789473684214,-7.999999999999545,-7.772631578947371,Decreasing,Decreasing,,1219.2,High Plains aquifer,Texas,Oldham County,35.19,-102.3641667
#758901,-0.02153846153846162,-0.0476315789473684,-1.72307692307693,-3.810526315789472,Decreasing,Decreasing,,1272.84,High Plains aquifer,Texas,Deaf Smith County,35.010001,-102.782222
#759201,-0.1414285714285727,-0.1417543859649121,-11.31428571428582,-11.34035087719297,Decreasing,Decreasing,,1266.75,High Plains aquifer,Texas,Deaf Smith County,35.1,-102.6808333
#759501,-0.1381818181818178,-0.1421578947368422,-11.05454545454543,-11.37263157894737,Decreasing,Decreasing,,1275.59,High Plains aquifer,Texas,Deaf Smith County,35.07,-102.7025
#760101,-0.1283333333333327,-0.04830075187969898,-10.26666666666662,-3.864060150375918,No trend,Decreasing,Different,1267.05,High Plains aquifer,Texas,Deaf Smith County,35.1,-102.6055556
#763202,-0.2299999999999997,-0.2554385964912281,-18.39999999999998,-20.43508771929825,Decreasing,Decreasing,,1170.74,High Plains aquifer,Texas,Deaf Smith County,35.094722,-102.202778
#924302,-0.0638461538461548,-0.06194736842105293,-5.107692307692384,-4.955789473684234,Decreasing,Decreasing,,1338.68,High Plains aquifer,Texas,Parmer County,34.740278,-103.027778
#924601,0.09799999999999992,0.1055521155830751,7.839999999999994,8.44416924664601,Increasing,Increasing,,1339.29,High Plains aquifer,Texas,Parmer County,34.706389,-103.012501
#924603,-0.0153846153846156,-0.006385964912280777,-1.230769230769248,-0.5108771929824621,No trend,No trend,,1331.37,High Plains aquifer,Texas,Parmer County,34.685556,-103.002223
#940201,-0.3683333333333323,-0.3627017543859649,-29.46666666666658,-29.01614035087719,Decreasing,Decreasing,,1281.38,High Plains aquifer,Texas,Parmer County,34.481667,-103.043056
#940911,-0.4500000000000028,-0.4803684210526316,-36.00000000000023,-38.42947368421053,Decreasing,Decreasing,,1266.14,High Plains aquifer,Texas,Parmer County,34.413334,-103.006945
